{ "type": "FeatureCollection", "features": [{"type":"Feature","id":1,"properties":{"_id":"6277dc064a2a4f6a6d6d6ef7","name":"NATANIA","identifier":"NAT","type":4,"country":"IL","frequency":{"value":"112.400","unit":2},"elevation":{"value":19,"unit":0,"referenceDatum":1},"magneticDeclination":5.084,"alignedTrueNorth":false,"range":{"value":40,"unit":2},"hoursOfOperation":{"operatingHours":[{"dayOfWeek":0,"startTime":"00:00","endTime":"00:00","byNotam":false,"sunrise":false,"sunset":false,"publicHolidaysExcluded":false},{"dayOfWeek":1,"startTime":"00:00","endTime":"00:00","byNotam":false,"sunrise":false,"sunset":false,"publicHolidaysExcluded":false},{"dayOfWeek":2,"startTime":"00:00","endTime":"00:00","byNotam":false,"sunrise":false,"sunset":false,"publicHolidaysExcluded":false},{"dayOfWeek":3,"startTime":"00:00","endTime":"00:00","byNotam":false,"sunrise":false,"sunset":false,"publicHolidaysExcluded":false},{"dayOfWeek":4,"startTime":"00:00","endTime":"00:00","byNotam":false,"sunrise":false,"sunset":false,"publicHolidaysExcluded":false},{"dayOfWeek":5,"startTime":"00:00","endTime":"00:00","byNotam":false,"sunrise":false,"sunset":false,"publicHolidaysExcluded":false},{"dayOfWeek":6,"startTime":"00:00","endTime":"00:00","byNotam":false,"sunrise":false,"sunset":false,"publicHolidaysExcluded":false}]},"createdAt":"2022-05-08T15:04:38.198Z","updatedAt":"2023-06-18T20:44:16.301Z","createdBy":"PZo493xbdLP9IH3qMzt97PzLf7Y2","updatedBy":"OPONcQnzWGOLiJSceNaf8pvx1fA2","elevationGeoid":{"geoidHeight":20.038224533333334,"hae":39.038224533333334},"channel":"71X"},"geometry":{"type":"Point","coordinates":[34.96888888888889,32.333888888888886]}}, {"type":"Feature","id":2,"properties":{"_id":"627bf9431cce9be403171187","name":"ROSH PINA","identifier":"ROP","type":4,"country":"IL","channel":"100X","frequency":{"value":"115.300","unit":2},"elevation":{"value":259,"unit":0,"referenceDatum":1},"magneticDeclination":5.166,"alignedTrueNorth":false,"range":{"value":20,"unit":2},"hoursOfOperation":{"operatingHours":[{"dayOfWeek":0,"startTime":"00:00","endTime":"00:00","byNotam":false,"sunrise":false,"sunset":false,"publicHolidaysExcluded":false},{"dayOfWeek":1,"startTime":"00:00","endTime":"00:00","byNotam":false,"sunrise":false,"sunset":false,"publicHolidaysExcluded":false},{"dayOfWeek":2,"startTime":"00:00","endTime":"00:00","byNotam":false,"sunrise":false,"sunset":false,"publicHolidaysExcluded":false},{"dayOfWeek":3,"startTime":"00:00","endTime":"00:00","byNotam":false,"sunrise":false,"sunset":false,"publicHolidaysExcluded":false},{"dayOfWeek":4,"startTime":"00:00","endTime":"00:00","byNotam":false,"sunrise":false,"sunset":false,"publicHolidaysExcluded":false},{"dayOfWeek":5,"startTime":"00:00","endTime":"00:00","byNotam":false,"sunrise":false,"sunset":false,"publicHolidaysExcluded":false},{"dayOfWeek":6,"startTime":"00:00","endTime":"00:00","byNotam":false,"sunrise":false,"sunset":false,"publicHolidaysExcluded":false}]},"createdAt":"2022-05-11T17:58:27.761Z","updatedAt":"2023-06-18T20:44:23.461Z","createdBy":"PZo493xbdLP9IH3qMzt97PzLf7Y2","updatedBy":"OPONcQnzWGOLiJSceNaf8pvx1fA2","elevationGeoid":{"geoidHeight":22.58837652666668,"hae":281.5883765266667}},"geometry":{"type":"Point","coordinates":[35.57277777777778,32.982527777777776]}}, {"type":"Feature","id":3,"properties":{"_id":"648f1d40b464cafc1a9a5d4e","createdBy":"eBT9qSrxquPVguazo7MwJzzaf2p1","createdAt":"2023-06-18T15:05:36.583Z","updatedBy":"OPONcQnzWGOLiJSceNaf8pvx1fA2","updatedAt":"2023-06-18T20:43:52.195Z","name":"BEER-SHEBA","identifier":"BSA","type":4,"country":"IL","channel":"90X","frequency":{"value":"114.300","unit":2},"elevation":{"value":182,"unit":0,"referenceDatum":1},"elevationGeoid":{"geoidHeight":18.037036,"hae":200.037036},"magneticDeclination":4.959,"alignedTrueNorth":false,"range":{"value":15,"unit":2},"hoursOfOperation":{"operatingHours":[{"dayOfWeek":0,"startTime":"00:00","endTime":"00:00","byNotam":false,"sunrise":false,"sunset":false,"publicHolidaysExcluded":false},{"dayOfWeek":1,"startTime":"00:00","endTime":"00:00","byNotam":false,"sunrise":false,"sunset":false,"publicHolidaysExcluded":false},{"dayOfWeek":2,"startTime":"00:00","endTime":"00:00","byNotam":false,"sunrise":false,"sunset":false,"publicHolidaysExcluded":false},{"dayOfWeek":3,"startTime":"00:00","endTime":"00:00","byNotam":false,"sunrise":false,"sunset":false,"publicHolidaysExcluded":false},{"dayOfWeek":4,"startTime":"00:00","endTime":"00:00","byNotam":false,"sunrise":false,"sunset":false,"publicHolidaysExcluded":false},{"dayOfWeek":5,"startTime":"00:00","endTime":"00:00","byNotam":false,"sunrise":false,"sunset":false,"publicHolidaysExcluded":false},{"dayOfWeek":6,"startTime":"00:00","endTime":"00:00","byNotam":false,"sunrise":false,"sunset":false,"publicHolidaysExcluded":false}]}},"geometry":{"type":"Point","coordinates":[34.721666666666664,31.28611111111111]}}, {"type":"Feature","id":4,"properties":{"_id":"648f1d7db464cafc1a9a6bf2","createdBy":"eBT9qSrxquPVguazo7MwJzzaf2p1","createdAt":"2023-06-18T15:06:37.538Z","updatedBy":"OPONcQnzWGOLiJSceNaf8pvx1fA2","updatedAt":"2023-06-18T20:43:59.067Z","name":"BEN-GURION","identifier":"BGN","type":7,"country":"IL","channel":"82X","frequency":{"value":"113.500","unit":2},"elevation":{"value":22,"unit":0,"referenceDatum":1},"elevationGeoid":{"geoidHeight":19.33801910000001,"hae":41.33801910000001},"magneticDeclination":5.045,"alignedTrueNorth":false,"range":{"value":40,"unit":2},"hoursOfOperation":{"operatingHours":[{"dayOfWeek":0,"startTime":"00:00","endTime":"00:00","byNotam":false,"sunrise":false,"sunset":false,"publicHolidaysExcluded":false},{"dayOfWeek":1,"startTime":"00:00","endTime":"00:00","byNotam":false,"sunrise":false,"sunset":false,"publicHolidaysExcluded":false},{"dayOfWeek":2,"startTime":"00:00","endTime":"00:00","byNotam":false,"sunrise":false,"sunset":false,"publicHolidaysExcluded":false},{"dayOfWeek":3,"startTime":"00:00","endTime":"00:00","byNotam":false,"sunrise":false,"sunset":false,"publicHolidaysExcluded":false},{"dayOfWeek":4,"startTime":"00:00","endTime":"00:00","byNotam":false,"sunrise":false,"sunset":false,"publicHolidaysExcluded":false},{"dayOfWeek":5,"startTime":"00:00","endTime":"00:00","byNotam":false,"sunrise":false,"sunset":false,"publicHolidaysExcluded":false},{"dayOfWeek":6,"startTime":"00:00","endTime":"00:00","byNotam":false,"sunrise":false,"sunset":false,"publicHolidaysExcluded":false}]}},"geometry":{"type":"Point","coordinates":[34.875277777777775,32.01305555555555]}}, {"type":"Feature","id":5,"properties":{"_id":"648f1dbcb464cafc1a9a6f79","createdBy":"eBT9qSrxquPVguazo7MwJzzaf2p1","createdAt":"2023-06-18T15:07:40.316Z","updatedBy":"OPONcQnzWGOLiJSceNaf8pvx1fA2","updatedAt":"2023-06-18T20:44:04.687Z","name":"EILOT","identifier":"LOT","type":4,"country":"IL","channel":"57X","frequency":{"value":"112.000","unit":2},"elevation":{"value":48,"unit":0,"referenceDatum":1},"elevationGeoid":{"geoidHeight":17.407961533333335,"hae":65.40796153333334},"magneticDeclination":4.769,"alignedTrueNorth":false,"range":{"value":30,"unit":2},"hoursOfOperation":{"operatingHours":[{"dayOfWeek":0,"startTime":"00:00","endTime":"00:00","byNotam":false,"sunrise":false,"sunset":false,"publicHolidaysExcluded":false},{"dayOfWeek":1,"startTime":"00:00","endTime":"00:00","byNotam":false,"sunrise":false,"sunset":false,"publicHolidaysExcluded":false},{"dayOfWeek":2,"startTime":"00:00","endTime":"00:00","byNotam":false,"sunrise":false,"sunset":false,"publicHolidaysExcluded":false},{"dayOfWeek":3,"startTime":"00:00","endTime":"00:00","byNotam":false,"sunrise":false,"sunset":false,"publicHolidaysExcluded":false},{"dayOfWeek":4,"startTime":"00:00","endTime":"00:00","byNotam":false,"sunrise":false,"sunset":false,"publicHolidaysExcluded":false},{"dayOfWeek":5,"startTime":"00:00","endTime":"00:00","byNotam":false,"sunrise":false,"sunset":false,"publicHolidaysExcluded":false},{"dayOfWeek":6,"startTime":"00:00","endTime":"00:00","byNotam":false,"sunrise":false,"sunset":false,"publicHolidaysExcluded":false}]}},"geometry":{"type":"Point","coordinates":[34.97611111111111,29.608055555555556]}}, {"type":"Feature","id":6,"properties":{"_id":"648f1df3b464cafc1a9a7065","createdBy":"eBT9qSrxquPVguazo7MwJzzaf2p1","createdAt":"2023-06-18T15:08:35.128Z","updatedBy":"OPONcQnzWGOLiJSceNaf8pvx1fA2","updatedAt":"2023-06-18T20:44:09.334Z","name":"METZADA","identifier":"MZD","type":4,"country":"IL","channel":"97X","frequency":{"value":"115.000","unit":2},"elevation":{"value":-389,"unit":0,"referenceDatum":1},"elevationGeoid":{"geoidHeight":17.304534000000004,"hae":-371.695466},"magneticDeclination":4.959,"alignedTrueNorth":false,"range":{"value":30,"unit":2},"hoursOfOperation":{"operatingHours":[{"dayOfWeek":0,"startTime":"00:00","endTime":"00:00","byNotam":false,"sunrise":false,"sunset":false,"publicHolidaysExcluded":false},{"dayOfWeek":1,"startTime":"00:00","endTime":"00:00","byNotam":false,"sunrise":false,"sunset":false,"publicHolidaysExcluded":false},{"dayOfWeek":2,"startTime":"00:00","endTime":"00:00","byNotam":false,"sunrise":false,"sunset":false,"publicHolidaysExcluded":false},{"dayOfWeek":3,"startTime":"00:00","endTime":"00:00","byNotam":false,"sunrise":false,"sunset":false,"publicHolidaysExcluded":false},{"dayOfWeek":4,"startTime":"00:00","endTime":"00:00","byNotam":false,"sunrise":false,"sunset":false,"publicHolidaysExcluded":false},{"dayOfWeek":5,"startTime":"00:00","endTime":"00:00","byNotam":false,"sunrise":false,"sunset":false,"publicHolidaysExcluded":false},{"dayOfWeek":6,"startTime":"00:00","endTime":"00:00","byNotam":false,"sunrise":false,"sunset":false,"publicHolidaysExcluded":false}]}},"geometry":{"type":"Point","coordinates":[35.391666666666666,31.331666666666667]}}, {"type":"Feature","id":7,"properties":{"_id":"648f3fa7b464cafc1a9e68b9","createdBy":"eBT9qSrxquPVguazo7MwJzzaf2p1","createdAt":"2023-06-18T17:32:23.787Z","updatedBy":"OPONcQnzWGOLiJSceNaf8pvx1fA2","updatedAt":"2023-06-18T20:44:27.838Z","name":"ZOFAR","identifier":"ZFR","type":4,"country":"IL","channel":"103X","frequency":{"value":"115.600","unit":2},"elevation":{"value":36,"unit":0,"referenceDatum":1},"elevationGeoid":{"geoidHeight":17.339644533333313,"hae":53.33964453333331},"magneticDeclination":4.872,"alignedTrueNorth":false,"range":{"value":30,"unit":2},"hoursOfOperation":{"operatingHours":[{"dayOfWeek":0,"startTime":"00:00","endTime":"00:00","byNotam":false,"sunrise":false,"sunset":false,"publicHolidaysExcluded":false},{"dayOfWeek":1,"startTime":"00:00","endTime":"00:00","byNotam":false,"sunrise":false,"sunset":false,"publicHolidaysExcluded":false},{"dayOfWeek":2,"startTime":"00:00","endTime":"00:00","byNotam":false,"sunrise":false,"sunset":false,"publicHolidaysExcluded":false},{"dayOfWeek":3,"startTime":"00:00","endTime":"00:00","byNotam":false,"sunrise":false,"sunset":false,"publicHolidaysExcluded":false},{"dayOfWeek":4,"startTime":"00:00","endTime":"00:00","byNotam":false,"sunrise":false,"sunset":false,"publicHolidaysExcluded":false},{"dayOfWeek":5,"startTime":"00:00","endTime":"00:00","byNotam":false,"sunrise":false,"sunset":false,"publicHolidaysExcluded":false},{"dayOfWeek":6,"startTime":"00:00","endTime":"00:00","byNotam":false,"sunrise":false,"sunset":false,"publicHolidaysExcluded":false}]},"remarks":"Reliable only along RDL009, RDL018 and RDL185"},"geometry":{"type":"Point","coordinates":[35.161944444444444,30.558888888888887]}}, {"type":"Feature","id":8,"properties":{"_id":"648f4006b464cafc1a9e69d4","createdBy":"eBT9qSrxquPVguazo7MwJzzaf2p1","createdAt":"2023-06-18T17:33:58.892Z","updatedBy":"OPONcQnzWGOLiJSceNaf8pvx1fA2","updatedAt":"2023-06-18T20:44:32.230Z","name":"ILAN AND ASAF RAMON","identifier":"RAM","type":7,"country":"IL","channel":"85Y","frequency":{"value":"113.850","unit":2},"elevation":{"value":78,"unit":0,"referenceDatum":1},"elevationGeoid":{"geoidHeight":17.779377933333336,"hae":95.77937793333334},"magneticDeclination":4.784,"alignedTrueNorth":false,"hoursOfOperation":{"operatingHours":[{"dayOfWeek":0,"startTime":"00:00","endTime":"00:00","byNotam":false,"sunrise":false,"sunset":false,"publicHolidaysExcluded":false},{"dayOfWeek":1,"startTime":"00:00","endTime":"00:00","byNotam":false,"sunrise":false,"sunset":false,"publicHolidaysExcluded":false},{"dayOfWeek":2,"startTime":"00:00","endTime":"00:00","byNotam":false,"sunrise":false,"sunset":false,"publicHolidaysExcluded":false},{"dayOfWeek":3,"startTime":"00:00","endTime":"00:00","byNotam":false,"sunrise":false,"sunset":false,"publicHolidaysExcluded":false},{"dayOfWeek":4,"startTime":"00:00","endTime":"00:00","byNotam":false,"sunrise":false,"sunset":false,"publicHolidaysExcluded":false},{"dayOfWeek":5,"startTime":"00:00","endTime":"00:00","byNotam":false,"sunrise":false,"sunset":false,"publicHolidaysExcluded":false},{"dayOfWeek":6,"startTime":"00:00","endTime":"00:00","byNotam":false,"sunrise":false,"sunset":false,"publicHolidaysExcluded":false}]},"remarks":"The VOR/DME should not be used east side of the VOR/DME"},"geometry":{"type":"Point","coordinates":[35.02055555555555,29.753055555555555]}}]}