{
"type": "FeatureCollection",
"name": "Sheet1",
"features": [
{ "type": "Feature", "properties": { "Field1": "NAME", "Field2": "X", "Field3": "Y" }, "geometry": null },
{ "type": "Feature", "properties": { "Field1": "Αγία Νάπα", "Field2": "34  59 18", "Field3": "33 59 52" }, "geometry": null },
{ "type": "Feature", "properties": { "Field1": "Άγιος Αθανάσιος", "Field2": "34 43 23", "Field3": "33 03 02" }, "geometry": null },
{ "type": "Feature", "properties": { "Field1": "Άγιος Δομέτιος", "Field2": "35 10 21", "Field3": "33.19.27" }, "geometry": null },
{ "type": "Feature", "properties": { "Field1": "Αγλαντζιά", "Field2": "35 08 22", "Field3": "34 24 16" }, "geometry": null },
{ "type": "Feature", "properties": { "Field1": "Αθηένου", "Field2": "35 03 45", "Field3": "35 32 26" }, "geometry": null },
{ "type": "Feature", "properties": { "Field1": "Αραδίππου", "Field2": "34 57 08", "Field3": "33 35 26" }, "geometry": null },
{ "type": "Feature", "properties": { "Field1": "Αβδελλερό", "Field2": "35 00 36", "Field3": "33 34 10" }, "geometry": null },
{ "type": "Feature", "properties": { "Field1": "Αγγλισίδες", "Field2": "34 51 12", "Field3": "33 27 23" }, "geometry": null },
{ "type": "Feature", "properties": { "Field1": "Αγία Άννα", "Field2": "34 56 35", "Field3": "33 28 53" }, "geometry": null },
{ "type": "Feature", "properties": { "Field1": "Αγία Βαρβάρα", "Field2": "34 59 49", "Field3": "33 22 10" }, "geometry": null },
{ "type": "Feature", "properties": { "Field1": "Αγία Βαρβάρα Πάφου", "Field2": "34 45 03", "Field3": "32 30 40" }, "geometry": null },
{ "type": "Feature", "properties": { "Field1": "Αγία Ειρήνη Κανναβιών", "Field2": "34 58 52", "Field3": "32 58 09" }, "geometry": null },
{ "type": "Feature", "properties": { "Field1": "Αγία Μαρίνα Κελοκεδάρων", "Field2": "34 49 43", "Field3": "32 36 51" }, "geometry": null },
{ "type": "Feature", "properties": { "Field1": "Αγία Μαρίνα Ξυλιάτου", "Field2": "35 02 56", "Field3": "33 03 23" }, "geometry": null },
{ "type": "Feature", "properties": { "Field1": "Αγία Μαρίνα Χρυσοχού", "Field2": "35 07 11", "Field3": "32 30 47" }, "geometry": null },
{ "type": "Feature", "properties": { "Field1": "Αγία Μαρινούδα ΠΑΦ", "Field2": "34 45 36", "Field3": "32 28 32" }, "geometry": null },
{ "type": "Feature", "properties": { "Field1": "Αγίοι Βαβατσινιάς ΛΑΡ", "Field2": "34 52 46", "Field3": "33 11 28" }, "geometry": null },
{ "type": "Feature", "properties": { "Field1": "Αγίοι Ηλιόφωτοι ΛΕΥ", "Field2": "35 03 33", "Field3": "33 06 14" }, "geometry": null },
{ "type": "Feature", "properties": { "Field1": "Αγίοι Τριμιθιάς", "Field2": "35 06 51", "Field3": "33 12 40" }, "geometry": null },
{ "type": "Feature", "properties": { "Field1": "Άγιος Αμβρόσιος Λεμεσού", "Field2": "34 46 50", "Field3": "32 49 35" }, "geometry": null },
{ "type": "Feature", "properties": { "Field1": "Άγιος Γεώργιος Καυκάλλου", "Field2": "35 02 13", "Field3": "33 00 44" }, "geometry": null },
{ "type": "Feature", "properties": { "Field1": "Άγιος Γεώργιος Συλίκου - ΛΕΜ", "Field2": "34 48 54", "Field3": "32 53 54" }, "geometry": null },
{ "type": "Feature", "properties": { "Field1": "Άγιος Δημητριανός -  ΠΑΦ", "Field2": "34 54 21", "Field3": "32 32 56" }, "geometry": null },
{ "type": "Feature", "properties": { "Field1": "Άγιος Θεράπων ΛΕΜ", "Field2": "34 47 51", "Field3": "32 50 24" }, "geometry": null },
{ "type": "Feature", "properties": { "Field1": "Άγιος Θωμάς ΛΕΜ", "Field2": "34 42 56", "Field3": "32 43 32" }, "geometry": null },
{ "type": "Feature", "properties": { "Field1": "Άγιος Ισίδωρος ΠΑΦ", "Field2": "35 00 19", "Field3": "32 28 14" }, "geometry": null },
{ "type": "Feature", "properties": { "Field1": "Άγιος Ιωάννης Αγρού ΛΕΜ", "Field2": "34 53 46", "Field3": "33 01 08" }, "geometry": null },
{ "type": "Feature", "properties": { "Field1": "Άγιος Ιωάννης Σαλαμιού ΠΑΦ", "Field2": "34 52 02", "Field3": "32 41 29" }, "geometry": null },
{ "type": "Feature", "properties": { "Field1": "Άγιος Ιωάννης Σελεμανι", "Field2": "34 08 58", "Field3": "32 42 14" }, "geometry": null },
{ "type": "Feature", "properties": { "Field1": "Άγιος Κωνσταντίνος ΛΕΜ", "Field2": "34 52 02", "Field3": "33 03 54" }, "geometry": null },
{ "type": "Feature", "properties": { "Field1": "Άγιος Μάμας ΛΕΜ", "Field2": "34 51 03", "Field3": "32 56 55" }, "geometry": null },
{ "type": "Feature", "properties": { "Field1": "Άγιος Νικόλαος Λεύκας ΛΕΥ", "Field2": "35 06 08", "Field3": "32 52 48" }, "geometry": null },
{ "type": "Feature", "properties": { "Field1": "Άγιος Παύλος ΛΕΜ", "Field2": "34 51 48", "Field3": "33 02 45" }, "geometry": null },
{ "type": "Feature", "properties": { "Field1": "Άγιος Σωζόμενος ΛΕΥ", "Field2": "35 03 52", "Field3": "33 26 23" }, "geometry": null },
{ "type": "Feature", "properties": { "Field1": "Άγιος Τύχωνας ΛΕΜ", "Field2": "34 43 30", "Field3": "33 08 17" }, "geometry": null },
{ "type": "Feature", "properties": { "Field1": "Αγρίδια ΛΕΜ", "Field2": "34 55 42", "Field3": "32 59 41" }, "geometry": null },
{ "type": "Feature", "properties": { "Field1": "Αγροκηπιά ΛΕΥ", "Field2": "35 02 39", "Field3": "33 09 18" }, "geometry": null },
{ "type": "Feature", "properties": { "Field1": "Αγρός ΛΕΜ", "Field2": "33 55 02", "Field3": "33 01 00" }, "geometry": null },
{ "type": "Feature", "properties": { "Field1": "Ακάκι ΛΕΥ", "Field2": "35 08 01", "Field3": "33 07 44" }, "geometry": null },
{ "type": "Feature", "properties": { "Field1": "Ακαπνού ΛΕΜ", "Field2": "34 50 21", "Field3": "33 11 12" }, "geometry": null },
{ "type": "Feature", "properties": { "Field1": "Ακουρσός ΠΑΦ", "Field2": "34 53 12", "Field3": "32 25 17" }, "geometry": null },
{ "type": "Feature", "properties": { "Field1": "Ακρούντα ΛΕΜ", "Field2": "34 45 56", "Field3": "33 04 52" }, "geometry": null },
{ "type": "Feature", "properties": { "Field1": "Ακρωτήρι ΛΕΜ", "Field2": "34 36 00", "Field3": "32 57 20" }, "geometry": null },
{ "type": "Feature", "properties": { "Field1": "Αλαμινός ΛΑΡ ", "Field2": "34 48 25", "Field3": "33 26 01" }, "geometry": null },
{ "type": "Feature", "properties": { "Field1": "Αλάμπρα ΛΕΥ", "Field2": "34 59 18", "Field3": "33 23 55" }, "geometry": null },
{ "type": "Feature", "properties": { "Field1": "Άλασσα ΛΕΜ", "Field2": "34 45 47", "Field3": "32 55 40" }, "geometry": null },
{ "type": "Feature", "properties": { "Field1": "Αλεθρικό ΛΑΡ", "Field2": "34 51 33", "Field3": "33 29 41" }, "geometry": null },
{ "type": "Feature", "properties": { "Field1": "Αλέυγα", "Field2": "35 09 20", "Field3": "32 36 20" }, "geometry": null },
{ "type": "Feature", "properties": { "Field1": "Αλέκτορα ΛΕΜ", "Field2": "34 42 32", "Field3": "32 40 59" }, "geometry": null },
{ "type": "Feature", "properties": { "Field1": "Αληθινού ΛΕΥ", "Field2": "34 56 51", "Field3": "33 01 43" }, "geometry": null },
{ "type": "Feature", "properties": { "Field1": "Άλωνα ΛΕΥ", "Field2": "34 56 03", "Field3": "33 02 22" }, "geometry": null },
{ "type": "Feature", "properties": { "Field1": "Αμαργέτη ΠΑΦ", "Field2": "34 49 25", "Field3": "32 34 57" }, "geometry": null },
{ "type": "Feature", "properties": { "Field1": "Αμίαντος ΛΕΜ", "Field2": "34 55 16", "Field3": "32 54 54" }, "geometry": null },
{ "type": "Feature", "properties": { "Field1": "Ανάγυια ΛΕΥ", "Field2": "35 04 22", "Field3": "33 15 07" }, "geometry": null },
{ "type": "Feature", "properties": { "Field1": "Αναδιού ΛΕΥ", "Field2": "34 56 41", "Field3": "32 33 56" }, "geometry": null },
{ "type": "Feature", "properties": { "Field1": "Αναλυόντας ΛΕΥ", "Field2": "35 00 24", "Field3": "33 17 23" }, "geometry": null },
{ "type": "Feature", "properties": { "Field1": "Αναρίτα ΠΑΦ", "Field2": "34 44 23", "Field3": "32 32 04" }, "geometry": null },
{ "type": "Feature", "properties": { "Field1": "Αναφωτία ΛΑΡ", "Field2": "34 49 26", "Field3": "33 27 49" }, "geometry": null },
{ "type": "Feature", "properties": { "Field1": "Ανδρολύκου ΠΑΦ", "Field2": "34 59 52", "Field3": "32 22 53" }, "geometry": null },
{ "type": "Feature", "properties": { "Field1": "Ανθούπολη ΛΕΥ", "Field2": "35 06 00", "Field3": "33 17 00" }, "geometry": null },
{ "type": "Feature", "properties": { "Field1": "Ανώγυρα ΛΕΜ", "Field2": "34 44 16", "Field3": "32 44 20" }, "geometry": null },
{ "type": "Feature", "properties": { "Field1": "Αξύλου ΠΑΦ", "Field2": "34 48 21", "Field3": "32 33 52" }, "geometry": null },
{ "type": "Feature", "properties": { "Field1": "Απαισιά ΛΕΜ", "Field2": "34 47 23", "Field3": "32 58 41" }, "geometry": null },
{ "type": "Feature", "properties": { "Field1": "Απλάντα ΛΑΡ", "Field2": "34 49 42", "Field3": "33 28 31" }, "geometry": null },
{ "type": "Feature", "properties": { "Field1": "Απλίκι Ορεινής ΛΕΥ", "Field2": "34 55 51", "Field3": "33 07 01" }, "geometry": null },
{ "type": "Feature", "properties": { "Field1": "Αρακαπάς ΛΕΜ", "Field2": "34 50 39", "Field3": "33 06 46" }, "geometry": null },
{ "type": "Feature", "properties": { "Field1": "Αργάκα ΠΑΦ", "Field2": "35 03 56", "Field3": "32 29 28" }, "geometry": null },
{ "type": "Feature", "properties": { "Field1": "Αρεδιού ΛΕΥ", "Field2": "35 02 51", "Field3": "33 11 41" }, "geometry": null },
{ "type": "Feature", "properties": { "Field1": "Αρμενοχώρι ΛΕΜ", "Field2": "34 44 40", "Field3": "33 07 45" }, "geometry": null },
{ "type": "Feature", "properties": { "Field1": "Αρμίνου ΠΑΦ", "Field2": "34 51 42", "Field3": "32 43 10" }, "geometry": null },
{ "type": "Feature", "properties": { "Field1": "Άρμου ΠΑΦ", "Field2": "34 47 58", "Field3": "32 28 43" }, "geometry": null },
{ "type": "Feature", "properties": { "Field1": "Άρσος Λεμεσού ΛΕΜ", "Field2": "34 50 26", "Field3": "32 46 09" }, "geometry": null },
{ "type": "Feature", "properties": { "Field1": "Ασγάτα ΛΕΜ", "Field2": "34 46 43", "Field3": "33 15 17" }, "geometry": null },
{ "type": "Feature", "properties": { "Field1": "Ασκάς ΛΕΥ", "Field2": "34 56 00", "Field3": "33 05 00" }, "geometry": null },
{ "type": "Feature", "properties": { "Field1": "Ασπρογιά ΠΑΦ", "Field2": "34 55 19", "Field3": "32 36 56" }, "geometry": null },
{ "type": "Feature", "properties": { "Field1": "Αστρομερίτης ΛΕΥ", "Field2": "35 08 00", "Field3": "33 02 00" }, "geometry": null },
{ "type": "Feature", "properties": { "Field1": "Ασώματος Λεμεσού", "Field2": "34 38 14", "Field3": "32 57 36" }, "geometry": null },
{ "type": "Feature", "properties": { "Field1": "Αυγόρου ΑΜΜ", "Field2": "35 02 08", "Field3": "33 50 21" }, "geometry": null },
{ "type": "Feature", "properties": { "Field1": "Αυδήμου ΛΕΜ", "Field2": "34 42 00", "Field3": "32 46 00" }, "geometry": null },
{ "type": "Feature", "properties": { "Field1": "Αχέλεια ΠΑΦ", "Field2": "34 44 19", "Field3": "32 29 10" }, "geometry": null },
{ "type": "Feature", "properties": { "Field1": "Αχερίτου ΑΜΜ", "Field2": "35 06 02", "Field3": "33 51 38" }, "geometry": null },
{ "type": "Feature", "properties": { "Field1": "Άχνα ΑΜΜ", "Field2": "35 03 19", "Field3": "33 47 04" }, "geometry": null },
{ "type": "Feature", "properties": { "Field1": "Αψιού ΛΕΜ", "Field2": "34 47 51", "Field3": "33 01 01" }, "geometry": null },
{ "type": "Feature", "properties": { "Field1": "Βαβατσινιά ΛΑΡ", "Field2": "34 53 33", "Field3": "33 13 44" }, "geometry": null },
{ "type": "Feature", "properties": { "Field1": "Βάβλα ΛΑΡ", "Field2": "34 50 28", "Field3": "33 16 04" }, "geometry": null },
{ "type": "Feature", "properties": { "Field1": "Βαρίσια ΛΕΥ", "Field2": "35 07 50", "Field3": "32 45 00" }, "geometry": null },
{ "type": "Feature", "properties": { "Field1": "Βήσα Κελλακίου ΛΕΜ", "Field2": "34 48 11", "Field3": "33 12 53" }, "geometry": null },
{ "type": "Feature", "properties": { "Field1": "Βάσα Κοιλανίου ΛΕΜ", "Field2": "34 49 59", "Field3": "32 47 28" }, "geometry": null },
{ "type": "Feature", "properties": { "Field1": "Βίκλα ΛΕΜ", "Field2": "34 49 37", "Field3": "33 11 44" }, "geometry": null },
{ "type": "Feature", "properties": { "Field1": "Βουνί  ΛΕΜ", "Field2": "34 49 24", "Field3": "32 50 01" }, "geometry": null },
{ "type": "Feature", "properties": { "Field1": "Βρέτσια ΠΑΦ", "Field2": "34 53 27", "Field3": "32 39 25" }, "geometry": null },
{ "type": "Feature", "properties": { "Field1": "Βυζακιά ΛΕΥ", "Field2": "35 04 39", "Field3": "33 00 52" }, "geometry": null },
{ "type": "Feature", "properties": { "Field1": "Γερμασόγεια ΛΕΜ", "Field2": "34 43 05", "Field3": "33 05 08" }, "geometry": null },
{ "type": "Feature", "properties": { "Field1": "Γεροσκήπου ΠΑΦ", "Field2": "34 46 00", "Field3": "32 28 00" }, "geometry": null },
{ "type": "Feature", "properties": { "Field1": "Γαλάτα ΛΕΥ", "Field2": "34 59 00", "Field3": "32 53 00" }, "geometry": null },
{ "type": "Feature", "properties": { "Field1": "Γαλαταριά ΠΑΦ", "Field2": "34 52 38", "Field3": "32 37 54" }, "geometry": null },
{ "type": "Feature", "properties": { "Field1": "Γερακιές ΛΕΥ", "Field2": "34 59 59", "Field3": "32 48 17" }, "geometry": null },
{ "type": "Feature", "properties": { "Field1": "Γεράσα ΛΕΜ", "Field2": "34 48 09", "Field3": "32 59 53" }, "geometry": null },
{ "type": "Feature", "properties": { "Field1": "Γέρι ΛΕΥ", "Field2": "35 00 06", "Field3": "33 25 00" }, "geometry": null },
{ "type": "Feature", "properties": { "Field1": "Γεροβάσα ΛΕΜ", "Field2": "34 48 47", "Field3": "32 44 25" }, "geometry": null },
{ "type": "Feature", "properties": { "Field1": "Γιαλιά ΠΑΦ", "Field2": "35 05 45", "Field3": "32 31 54" }, "geometry": null },
{ "type": "Feature", "properties": { "Field1": "Γιόλου ΠΑΦ", "Field2": "34 55 24", "Field3": "32 28 28" }, "geometry": null },
{ "type": "Feature", "properties": { "Field1": "Γουδί ΠΑΦ", "Field2": "34 59 27", "Field3": "32 26 28" }, "geometry": null },
{ "type": "Feature", "properties": { "Field1": "Γούρρι ΛΕΥ", "Field2": "34 57 26", "Field3": "33 09 25" }, "geometry": null },
{ "type": "Feature", "properties": { "Field1": "Δάλι (Ιδάλιον) ΛΕΥ", "Field2": "35 01 16", "Field3": "33 25 12" }, "geometry": null },
{ "type": "Feature", "properties": { "Field1": "Δερύνεια ΑΜΜ", "Field2": "35 01 20", "Field3": "33 57 25" }, "geometry": null },
{ "type": "Feature", "properties": { "Field1": "Δελίκηπος ΛΑΡ", "Field2": "34 55 00", "Field3": "33 21 43" }, "geometry": null },
{ "type": "Feature", "properties": { "Field1": "Δένεια ΛΕΥ", "Field2": "35 09 58", "Field3": "33 08 43" }, "geometry": null },
{ "type": "Feature", "properties": { "Field1": "Διερώνα ΛΕΜ", "Field2": "34 49 49", "Field3": "33 06 40" }, "geometry": null },
{ "type": "Feature", "properties": { "Field1": "Δορά ΛΕΜ", "Field2": "34 46 50", "Field3": "32 44 17" }, "geometry": null },
{ "type": "Feature", "properties": { "Field1": "Δρομολαξιά ΛΑΡ", "Field2": "34 52 15", "Field3": "33 35 34" }, "geometry": null },
{ "type": "Feature", "properties": { "Field1": "Δρούσια ΠΑΦ", "Field2": "34 57 45", "Field3": "32 23 51" }, "geometry": null },
{ "type": "Feature", "properties": { "Field1": "Δρύμου ΠΑΦ", "Field2": "34 55 30", "Field3": "32 30 48" }, "geometry": null },
{ "type": "Feature", "properties": { "Field1": "Δρυνιά ΠΑΦ", "Field2": "34 54 57", "Field3": "32 31 40" }, "geometry": null },
{ "type": "Feature", "properties": { "Field1": "Δύμες ΛΕΜ", "Field2": "34 55 00", "Field3": "32 59 00" }, "geometry": null },
{ "type": "Feature", "properties": { "Field1": "Δωρός ΛΕΥ", "Field2": "34 48 57", "Field3": "32 54 42" }, "geometry": null },
{ "type": "Feature", "properties": { "Field1": "Έγκωμη Λευκωσίας ΛΕΥ", "Field2": "35 09 47", "Field3": "33 18 59" }, "geometry": null },
{ "type": "Feature", "properties": { "Field1": "Ελεδιώ ΠΑΦ", "Field2": "34 48 34", "Field3": "32 34 03" }, "geometry": null },
{ "type": "Feature", "properties": { "Field1": "Έμπα ΠΑΦ", "Field2": "34 48 32", "Field3": "32 25 46" }, "geometry": null },
{ "type": "Feature", "properties": { "Field1": "Επισκοπειό ΛΕΥ", "Field2": "35 02 26", "Field3": "33 14 39" }, "geometry": null },
{ "type": "Feature", "properties": { "Field1": "Επισκοπή Λεμεσού ΛΕΜ", "Field2": "34 40 15", "Field3": "32 54 07" }, "geometry": null },
{ "type": "Feature", "properties": { "Field1": "Επισκοπή Πάφου ΠΑΦ", "Field2": "34 47 41", "Field3": "32 31 32" }, "geometry": null },
{ "type": "Feature", "properties": { "Field1": "Εργάτες ΛΕΥ", "Field2": "35 03 13", "Field3": "33 14 34" }, "geometry": null },
{ "type": "Feature", "properties": { "Field1": "Ερήμη ΛΕΜ", "Field2": "35 45 53", "Field3": "32 55 02" }, "geometry": null },
{ "type": "Feature", "properties": { "Field1": "Ευρέτου ΠΑΦ", "Field2": "34 57 37", "Field3": "32 29 01" }, "geometry": null },
{ "type": "Feature", "properties": { "Field1": "Ευρύχου ΛΕΥ", "Field2": "35 02 00", "Field3": "32 54 00" }, "geometry": null },
{ "type": "Feature", "properties": { "Field1": "Εφταγώνια ΛΕΜ", "Field2": "34 50 49", "Field3": "33 09 27" }, "geometry": null },
{ "type": "Feature", "properties": { "Field1": "Ζαχαριά ΠΑΦ", "Field2": "34 58 55", "Field3": "32 31 55" }, "geometry": null },
{ "type": "Feature", "properties": { "Field1": "Ζύγι ΛΑΡ", "Field2": "33 43 40", "Field3": "33 20 20" }, "geometry": null },
{ "type": "Feature", "properties": { "Field1": "Ζωοπηγή ΛΕΜ", "Field2": "34 51 47", "Field3": "33 00 54" }, "geometry": null },
{ "type": "Feature", "properties": { "Field1": "Θελέτρα ΠΑΦ", "Field2": "34 54 42", "Field3": "32 26 51" }, "geometry": null },
{ "type": "Feature", "properties": { "Field1": "Ίνια ΠΑΦ", "Field2": "34 57 19", "Field3": "32 23 37" }, "geometry": null },
{ "type": "Feature", "properties": { "Field1": "Ιστιντζιόν ΠΑΦ", "Field2": "34 58 30", "Field3": "32 31 30" }, "geometry": null },
{ "type": "Feature", "properties": { "Field1": "Κάθηκας ΠΑΦ", "Field2": "34 54 45", "Field3": "32 25 32" }, "geometry": null },
{ "type": "Feature", "properties": { "Field1": "Κακοπετριά ΛΕΥ", "Field2": "34 59 00", "Field3": "32 54 00" }, "geometry": null },
{ "type": "Feature", "properties": { "Field1": "Καλαβασός ΛΑΡ", "Field2": "34 46 19", "Field3": "32 17 45" }, "geometry": null },
{ "type": "Feature", "properties": { "Field1": "Καλλέπια ΠΑΦ", "Field2": "34 50 43", "Field3": "32 30 01" }, "geometry": null },
{ "type": "Feature", "properties": { "Field1": "Καλλιάνα ΛΕΥ", "Field2": "35 00 41", "Field3": "32 53 01" }, "geometry": null },
{ "type": "Feature", "properties": { "Field1": "Καλό Χωριό Κλήρου ΛΕΥ", "Field2": "35 01 13", "Field3": "33 10 39" }, "geometry": null },
{ "type": "Feature", "properties": { "Field1": "Καλό Χωριό Λάρνακας", "Field2": "34 55 44", "Field3": "33 32 11" }, "geometry": null },
{ "type": "Feature", "properties": { "Field1": "Καλό Χωριό Λεμεσού", "Field2": "35 00 21", "Field3": "33 09 44" }, "geometry": null },
{ "type": "Feature", "properties": { "Field1": "Καλοπαναγιώτης ΛΕΥ", "Field2": "34 59 31", "Field3": "32 49 45" }, "geometry": null },
{ "type": "Feature", "properties": { "Field1": "Καμινάρια ΛΕΜ", "Field2": "34 55 43", "Field3": "32 47 02" }, "geometry": null },
{ "type": "Feature", "properties": { "Field1": "Καμπί (του Φαρμακά) ΛΕΥ", "Field2": "34 54 29", "Field3": "33 07 43" }, "geometry": null },
{ "type": "Feature", "properties": { "Field1": "Καμπιά ΛΕΥ", "Field2": "35 00 25", "Field3": "33 15 22" }, "geometry": null },
{ "type": "Feature", "properties": { "Field1": "Κάμπος (της Τσακκίστρας)ΛΕΥ", "Field2": "35 02 26", "Field3": "32 43 56" }, "geometry": null },
{ "type": "Feature", "properties": { "Field1": "Καννάβια ΛΕΥ", "Field2": "34 58 56", "Field3": "32 58 34" }, "geometry": null },
{ "type": "Feature", "properties": { "Field1": "Κανναβιού ΠΑΦ", "Field2": "34 54 52", "Field3": "32 34 23" }, "geometry": null },
{ "type": "Feature", "properties": { "Field1": "Καντού ΛΕΜ", "Field2": "34 41 25", "Field3": "32 54 24" }, "geometry": null },
{ "type": "Feature", "properties": { "Field1": "Καπέδες ΛΕΥ", "Field2": "34 58 32", "Field3": "33 15 14" }, "geometry": null },
{ "type": "Feature", "properties": { "Field1": "Καπηλειό ΛΕΜ", "Field2": "34 49 57", "Field3": "32 57 30" }, "geometry": null },
{ "type": "Feature", "properties": { "Field1": "Καραμούλληδες ΠΑΦ", "Field2": "34 59 49", "Field3": "32 26 38" }, "geometry": null },
{ "type": "Feature", "properties": { "Field1": "Καταλυόντας ΛΕΥ", "Field2": "34 59 29", "Field3": "33 17 56" }, "geometry": null },
{ "type": "Feature", "properties": { "Field1": "Κατύδατα ΛΕΥ", "Field2": "35 04 57", "Field3": "32 53 17" }, "geometry": null },
{ "type": "Feature", "properties": { "Field1": "Κάτω Ακουρδάλια ΠΑΦ", "Field2": "34 57 10", "Field3": "32 27 06" }, "geometry": null },
{ "type": "Feature", "properties": { "Field1": "Κάτω Αρόδες ΠΑΦ", "Field2": "34 56 47", "Field3": "32 24 12" }, "geometry": null },
{ "type": "Feature", "properties": { "Field1": "Κάτω Δευτερά ΛΕΥ", "Field2": "35 05 05", "Field3": "33 16 35" }, "geometry": null },
{ "type": "Feature", "properties": { "Field1": "Κάτω Δρυς ΛΑΡ", "Field2": "34 51 03", "Field3": "33 18 15" }, "geometry": null },
{ "type": "Feature", "properties": { "Field1": "Κάτω Κουτραφάς ΛΕΥ", "Field2": "35 06 08", "Field3": "32 58 40" }, "geometry": null },
{ "type": "Feature", "properties": { "Field1": "Κάτω Κυβίδες ΛΕΜ", "Field2": "34 45 52", "Field3": "32 51 48" }, "geometry": null },
{ "type": "Feature", "properties": { "Field1": "Κάτω Λεύκαρα ΛΑΡ", "Field2": "34 51 45", "Field3": "33 18 58" }, "geometry": null },
{ "type": "Feature", "properties": { "Field1": "Κάτω Μονή ΛΕΥ", "Field2": "35 03 39", "Field3": "33 05 35" }, "geometry": null },
{ "type": "Feature", "properties": { "Field1": "Κάτω Μύλος ΛΕΜ", "Field2": "34 53 42", "Field3": "33 00 20" }, "geometry": null },
{ "type": "Feature", "properties": { "Field1": "Κάτω Πλάτρες (Τορνάρηδες)", "Field2": "34 52 47", "Field3": "32 50 30" }, "geometry": null },
{ "type": "Feature", "properties": { "Field1": "Κάτω Πύργος ΛΕΥ", "Field2": "35 10 52", "Field3": "32 41 11" }, "geometry": null },
{ "type": "Feature", "properties": { "Field1": "Κέδαρες ΠΑΦ", "Field2": "34 50 07", "Field3": "32 44 10" }, "geometry": null },
{ "type": "Feature", "properties": { "Field1": "Κελλάκι ΛΕΜ", "Field2": "34 48 58", "Field3": "33 09 30" }, "geometry": null },
{ "type": "Feature", "properties": { "Field1": "Κελλιά ΛΑΡ", "Field2": "34 58 56", "Field3": "33 37 37" }, "geometry": null },
{ "type": "Feature", "properties": { "Field1": "Κελοκέδαρα ΠΑΦ", "Field2": "34 48 45", "Field3": "32 39 07" }, "geometry": null },
{ "type": "Feature", "properties": { "Field1": "Κιβισίλι ΛΑΡ", "Field2": "34 50 22", "Field3": "33 30 20" }, "geometry": null },
{ "type": "Feature", "properties": { "Field1": "Κιδάσι ΠΑΦ", "Field2": "34 48 26", "Field3": "32 42 47" }, "geometry": null },
{ "type": "Feature", "properties": { "Field1": "Κινούσα ΠΑΦ", "Field2": "35 02 01", "Field3": "32 30 23" }, "geometry": null },
{ "type": "Feature", "properties": { "Field1": "Κισσόνεργα ΠΑΦ", "Field2": "34 49 21", "Field3": "32 24 09" }, "geometry": null },
{ "type": "Feature", "properties": { "Field1": "Κισσούσα ΛΕΜ", "Field2": "34 48 38", "Field3": "32 47 41" }, "geometry": null },
{ "type": "Feature", "properties": { "Field1": "Κίτι ΛΑΡ", "Field2": "34 50 50", "Field3": "33 34 19" }, "geometry": null },
{ "type": "Feature", "properties": { "Field1": "Κλαυδιά ΛΑΡ", "Field2": "34 53 32", "Field3": "33 30 53" }, "geometry": null },
{ "type": "Feature", "properties": { "Field1": "Κλήρου ΛΕΥ", "Field2": "33 01 13", "Field3": "33 10 39" }, "geometry": null },
{ "type": "Feature", "properties": { "Field1": "Κλωνάρι ΛΕΜ", "Field2": "34 49 34", "Field3": "33 10 53" }, "geometry": null },
{ "type": "Feature", "properties": { "Field1": "Κοιλάνι ΛΕΜ", "Field2": "34 50 41", "Field3": "32 51 37" }, "geometry": null },
{ "type": "Feature", "properties": { "Field1": "Κοίλη ΠΑΦ", "Field2": "34 51 36", "Field3": "32 27 18" }, "geometry": null },
{ "type": "Feature", "properties": { "Field1": "Κοιλίνια ΠΑΦ", "Field2": "34 52 59", "Field3": "32 37 54" }, "geometry": null },
{ "type": "Feature", "properties": { "Field1": "Κοκκινοτριμιθιά ΛΕΥ", "Field2": "33 09 10", "Field3": "33 11 59" }, "geometry": null },
{ "type": "Feature", "properties": { "Field1": "Κολόσσι", "Field2": "33 40 15", "Field3": "32 55 45" }, "geometry": null },
{ "type": "Feature", "properties": { "Field1": "Κονιά ΠΑΦ", "Field2": "34 42 20", "Field3": "32 27 30" }, "geometry": null },
{ "type": "Feature", "properties": { "Field1": "Κοράκου ΛΕΥ", "Field2": "35 02 26", "Field3": "32 53 11" }, "geometry": null },
{ "type": "Feature", "properties": { "Field1": "Κόρνος ΛΑΡ", "Field2": "34 55 18", "Field3": "33 23 44" }, "geometry": null },
{ "type": "Feature", "properties": { "Field1": "Κορφή ΛΕΜ", "Field2": "34 47 43", "Field3": "32 57 53" }, "geometry": null },
{ "type": "Feature", "properties": { "Field1": "Κόσιη ΛΑΡ", "Field2": "34 58 47", "Field3": "33 31 04" }, "geometry": null },
{ "type": "Feature", "properties": { "Field1": "Κοτσιάτης ΛΕΥ", "Field2": "35 00 45", "Field3": "33 20 59" }, "geometry": null },
{ "type": "Feature", "properties": { "Field1": "Κουκά ΛΕΜ", "Field2": "34 51 020", "Field3": "32 53 13" }, "geometry": null },
{ "type": "Feature", "properties": { "Field1": "Κούκλια Πάφου ΠΑΦ", "Field2": "34 42 59", "Field3": "32 34 38" }, "geometry": null },
{ "type": "Feature", "properties": { "Field1": "Κούρτακα ΠΑΦ", "Field2": "34 51 03", "Field3": "32 31 59" }, "geometry": null },
{ "type": "Feature", "properties": { "Field1": "Κοφίνου ΛΑΡ", "Field2": "34 49 33", "Field3": "33 23 30" }, "geometry": null },
{ "type": "Feature", "properties": { "Field1": "Κρήτου Μαρόττου ΠΑΦ", "Field2": "34 55 36", "Field3": "32 33 45" }, "geometry": null },
{ "type": "Feature", "properties": { "Field1": "Κρήτου Τέρρα ΠΑΦ", "Field2": "34 57 19", "Field3": "32 25 21" }, "geometry": null },
{ "type": "Feature", "properties": { "Field1": "Κυπερούντα ΛΕΜ", "Field2": "34 56 29", "Field3": "32 58 09" }, "geometry": null },
{ "type": "Feature", "properties": { "Field1": "Λακατάμια ΛΕΥ", "Field2": "35 07 00", "Field3": "33 19 00" }, "geometry": null },
{ "type": "Feature", "properties": { "Field1": "Λατσιά ΛΕΥ", "Field2": "35 06 00", "Field3": "33 22 00" }, "geometry": null },
{ "type": "Feature", "properties": { "Field1": "Λεμεσός ΛΕΜ", "Field2": "34 40 00", "Field3": "33 02 00" }, "geometry": null },
{ "type": "Feature", "properties": { "Field1": "Λάρνακα ΛΑΡ", "Field2": "34 55 00", "Field3": "33 38 00" }, "geometry": null },
{ "type": "Feature", "properties": { "Field1": "Λευκωσία ΛΕΥ", "Field2": "35 10 00", "Field3": "33 22 00" }, "geometry": null },
{ "type": "Feature", "properties": { "Field1": "Λάγια ΛΑΡ", "Field2": "34 50 36", "Field3": "33 14 50" }, "geometry": null },
{ "type": "Feature", "properties": { "Field1": "Λαγουδερά ΛΕΥ", "Field2": "34 57 45", "Field3": "33 00 37" }, "geometry": null },
{ "type": "Feature", "properties": { "Field1": "Λαζανιά ΛΕΜ", "Field2": "34 56 54", "Field3": "33 10 27" }, "geometry": null },
{ "type": "Feature", "properties": { "Field1": "Λάνια ΛΕΜ", "Field2": "34 49 28", "Field3": "32 55 15" }, "geometry": null },
{ "type": "Feature", "properties": { "Field1": "Λαπηθιού ΠΑΦ", "Field2": "34 54 07", "Field3": "32 36 02" }, "geometry": null },
{ "type": "Feature", "properties": { "Field1": "Λάσα ΠΑΦ", "Field2": "34 55 30", "Field3": "32 31 39" }, "geometry": null },
{ "type": "Feature", "properties": { "Field1": "Λειβάδι ΠΑΦ", "Field2": "35 06 20", "Field3": "32 37 00" }, "geometry": null },
{ "type": "Feature", "properties": { "Field1": "Λειβάδια Λάρνακας ΛΑΡ", "Field2": "34 56 58", "Field3": "33 37 52" }, "geometry": null },
{ "type": "Feature", "properties": { "Field1": "Λειβάδια Πιτσιλιάς ΛΕΥ", "Field2": "34 56 46", "Field3": "33 01 23" }, "geometry": null },
{ "type": "Feature", "properties": { "Field1": "Λέμπα ΠΑΦ", "Field2": "34 48 31", "Field3": "32 24 30" }, "geometry": null },
{ "type": "Feature", "properties": { "Field1": "Λεμύθου ΛΕΜ", "Field2": "34 56 57", "Field3": "32 48 41" }, "geometry": null },
{ "type": "Feature", "properties": { "Field1": "Λεμώνα ΠΑΦ", "Field2": "34 51 47", "Field3": "32 33 26" }, "geometry": null },
{ "type": "Feature", "properties": { "Field1": "Λεύκα", "Field2": "35 06 48", "Field3": "32 50 58" }, "geometry": null },
{ "type": "Feature", "properties": { "Field1": "Λετύμπου ΠΑΦ", "Field2": "34 51 20", "Field3": "32 30 49" }, "geometry": null },
{ "type": "Feature", "properties": { "Field1": "Λιμνάτης ΛΕΜ", "Field2": "34 48 46", "Field3": "32 56 52" }, "geometry": null },
{ "type": "Feature", "properties": { "Field1": "Λινού ΛΕΥ", "Field2": "35 04 23", "Field3": "32 53 33" }, "geometry": null },
{ "type": "Feature", "properties": { "Field1": "Λιοπέτρι ΑΜΜ", "Field2": "35 00 00", "Field3": "33 53 00" }, "geometry": null },
{ "type": "Feature", "properties": { "Field1": "Λουβαράς ΛΕΜ", "Field2": "34 50 00", "Field3": "33 03 00" }, "geometry": null },
{ "type": "Feature", "properties": { "Field1": "Λουκρούνου ΠΑΦ", "Field2": "34 57 08", "Field3": "32 27 52" }, "geometry": null },
{ "type": "Feature", "properties": { "Field1": "Λόφου ΛΕΜ", "Field2": "34 48 57", "Field3": "32 52 31" }, "geometry": null },
{ "type": "Feature", "properties": { "Field1": "Λυθροδόντας ΛΕΥ", "Field2": "34 56 59", "Field3": "33 17 46" }, "geometry": null },
{ "type": "Feature", "properties": { "Field1": "Λύμπια ΛΕΥ", "Field2": "34 59 49", "Field3": "33 27 42" }, "geometry": null },
{ "type": "Feature", "properties": { "Field1": "Λυσός ΠΑΦ", "Field2": "34 59 44", "Field3": "32 30 42" }, "geometry": null },
{ "type": "Feature", "properties": { "Field1": "Μέσα Γειτονιά ΛΕΜ", "Field2": "34 42 00", "Field3": "33 02 00" }, "geometry": null },
{ "type": "Feature", "properties": { "Field1": "Μαζωτός ΛΑΡ", "Field2": "34 48 08", "Field3": "33 29 24" }, "geometry": null },
{ "type": "Feature", "properties": { "Field1": "Μαθηκολώνη ΛΕΜ", "Field2": "34 46 31", "Field3": "33 02 55" }, "geometry": null },
{ "type": "Feature", "properties": { "Field1": "Μαθιάτης ΛΕΥ", "Field2": "34 57 46", "Field3": "33 20 10" }, "geometry": null },
{ "type": "Feature", "properties": { "Field1": "Μακούντα ΠΑΦ", "Field2": "35 03 05", "Field3": "32 29 09" }, "geometry": null },
{ "type": "Feature", "properties": { "Field1": "Μαλλιά ΛΕΜ", "Field2": "34 48 59", "Field3": "32 46 58" }, "geometry": null },
{ "type": "Feature", "properties": { "Field1": "Μαλούντα Λευκωσίας ΛΕΥ", "Field2": "35 02 06", "Field3": "33 10 58" }, "geometry": null },
{ "type": "Feature", "properties": { "Field1": "Μάμμαρι ΛΕΥ", "Field2": "35 10 27", "Field3": "33 12 10" }, "geometry": null },
{ "type": "Feature", "properties": { "Field1": "Μαμούνταλι ΠΑΦ", "Field2": "34 55 03", "Field3": "32 37 03" }, "geometry": null },
{ "type": "Feature", "properties": { "Field1": "Μαμώνια ΠΑΦ", "Field2": "34 46 10", "Field3": "32 38 11" }, "geometry": null },
{ "type": "Feature", "properties": { "Field1": "Μαντριά Λεμεσού ΛΕΜ", "Field2": "34 52 09", "Field3": "32 59 55" }, "geometry": null },
{ "type": "Feature", "properties": { "Field1": "Μαντριά Πάφου ΠΑΦ", "Field2": "34 42 55", "Field3": "32 31 54" }, "geometry": null },
{ "type": "Feature", "properties": { "Field1": "Μαραθούντα ΠΑΦ", "Field2": "34 47 30", "Field3": "32 29 14" }, "geometry": null },
{ "type": "Feature", "properties": { "Field1": "Μαρί ΛΑΡ", "Field2": "34 44 26", "Field3": "33 17 57" }, "geometry": null },
{ "type": "Feature", "properties": { "Field1": "Μαρκί ΛΕΥ", "Field2": "35 01 21", "Field3": "33 19 35" }, "geometry": null },
{ "type": "Feature", "properties": { "Field1": "Μάρωνας ΠΑΦ", "Field2": "34 46 06", "Field3": "32 40 06" }, "geometry": null },
{ "type": "Feature", "properties": { "Field1": "Μαρώνι ΛΑΡ", "Field2": "34 45 26", "Field3": "33 21 21" }, "geometry": null },
{ "type": "Feature", "properties": { "Field1": "Μελάδια ΠΑΦ", "Field2": "34 59 17", "Field3": "32 30 25" }, "geometry": null },
{ "type": "Feature", "properties": { "Field1": "Μελάνδρα ΠΑΦ", "Field2": "34 59 21", "Field3": "32 31 30" }, "geometry": null },
{ "type": "Feature", "properties": { "Field1": "Μελίνη ΛΑΡ", "Field2": "34 51 59 ", "Field3": "33 09 23" }, "geometry": null },
{ "type": "Feature", "properties": { "Field1": "Μενεού ΛΑΡ", "Field2": "34 51 53", "Field3": "33 35 26" }, "geometry": null },
{ "type": "Feature", "properties": { "Field1": "Μενόγια ΛΑΡ", "Field2": "34 50 34", "Field3": "33 26 27" }, "geometry": null },
{ "type": "Feature", "properties": { "Field1": "Μένοικο ΛΕΥ", "Field2": "35 06 44", "Field3": "33 08 46" }, "geometry": null },
{ "type": "Feature", "properties": { "Field1": "Μέσα Χωριό ΠΑΦ", "Field2": "34 48 32", "Field3": "32 27 40" }, "geometry": null },
{ "type": "Feature", "properties": { "Field1": "Μέσανα ΠΑΦ", "Field2": "34 50 56", "Field3": "32 42 24" }, "geometry": null },
{ "type": "Feature", "properties": { "Field1": "Μεσόγη ΠΑΦ", "Field2": "34 48 54", "Field3": "32 27 19" }, "geometry": null },
{ "type": "Feature", "properties": { "Field1": "Μηλιά Πάφου ΠΑΦ", "Field2": "34 55 12", "Field3": "32 32 23" }, "geometry": null },
{ "type": "Feature", "properties": { "Field1": "Μηλικούρι ΛΕΥ", "Field2": "34 57 43", "Field3": "32 45 02" }, "geometry": null },
{ "type": "Feature", "properties": { "Field1": "Μηλιού ΠΑΦ", "Field2": "34 56 21", "Field3": "32 27 38" }, "geometry": null },
{ "type": "Feature", "properties": { "Field1": "Μιτσερό ΛΕΥ", "Field2": "35 02 32 ", "Field3": "32 07 37" }, "geometry": null },
{ "type": "Feature", "properties": { "Field1": "Μονάγρι ΛΕΜ", "Field2": "34 48 33", "Field3": "32 54 38" }, "geometry": null },
{ "type": "Feature", "properties": { "Field1": "Μοναγρούλλι ΛΕΜ", "Field2": "34 44 50", "Field3": "33 12 45" }, "geometry": null },
{ "type": "Feature", "properties": { "Field1": "Μονή ΛΕΜ", "Field2": "34 44 18", "Field3": "33 12 04" }, "geometry": null },
{ "type": "Feature", "properties": { "Field1": "Μονιάτης ΛΕΜ", "Field2": "34 52 07", "Field3": "32 53 49" }, "geometry": null },
{ "type": "Feature", "properties": { "Field1": "Μοσφιλωτή ΛΑΡ", "Field2": "34 57 07", "Field3": "33 25 29" }, "geometry": null },
{ "type": "Feature", "properties": { "Field1": "Μούσερε ΠΑΦ", "Field2": "34 46 16", "Field3": "32 42 55" }, "geometry": null },
{ "type": "Feature", "properties": { "Field1": "Μουτουλλάς ΛΕΥ", "Field2": "34 59 01", "Field3": "32 49 49" }, "geometry": null },
{ "type": "Feature", "properties": { "Field1": "Μουτταγιάκα ΛΕΜ", "Field2": "34 43 18", "Field3": "33 06 09" }, "geometry": null },
{ "type": "Feature", "properties": { "Field1": "Νατά ΠΑΦ", "Field2": "34 46 54", "Field3": "32 33 58" }, "geometry": null },
{ "type": "Feature", "properties": { "Field1": "Νέα Δήμματα ΠΑΦ", "Field2": "35 08 05", "Field3": "32 31 21 " }, "geometry": null },
{ "type": "Feature", "properties": { "Field1": "Νέο Χωριό Πάφου ΠΑΦ", "Field2": "35 01 30", "Field3": "32 21 45" }, "geometry": null },
{ "type": "Feature", "properties": { "Field1": "Νήσου ΛΕΥ", "Field2": "35 01 14", "Field3": "33 23 28" }, "geometry": null },
{ "type": "Feature", "properties": { "Field1": "Νικητάρι ΛΕΥ", "Field2": "35 04 00", "Field3": "32 59 00" }, "geometry": null },
{ "type": "Feature", "properties": { "Field1": "Νικόκλεια ΠΑΦ", "Field2": "35 43 43", "Field3": "32 34 27" }, "geometry": null },
{ "type": "Feature", "properties": { "Field1": "Ξυλιάτος ΛΕΥ", "Field2": "35 01 44", "Field3": "33 02 29" }, "geometry": null },
{ "type": "Feature", "properties": { "Field1": "Ξυλοτύμπου ΛΑΡ", "Field2": "35 01 00", "Field3": "33 44 32" }, "geometry": null },
{ "type": "Feature", "properties": { "Field1": "Ξυλοφάγου ΛΑΡ", "Field2": "34 58 30", "Field3": "33 51 06" }, "geometry": null },
{ "type": "Feature", "properties": { "Field1": "Οδού ΛΑΡ", "Field2": "34 53 06", "Field3": "33 09 33" }, "geometry": null },
{ "type": "Feature", "properties": { "Field1": "Οίκος (Μαραθάσας)ΛΕΥ", "Field2": "34 59 58", "Field3": "32 49 49" }, "geometry": null },
{ "type": "Feature", "properties": { "Field1": "Όμοδος ΛΕΜ", "Field2": "34 50 52", "Field3": "32 48 31" }, "geometry": null },
{ "type": "Feature", "properties": { "Field1": "Ορά ΛΑΡ", "Field2": "34 51 44", "Field3": "33 11 44" }, "geometry": null },
{ "type": "Feature", "properties": { "Field1": "Ορμήδεια ΛΑΡ", "Field2": "34 59 33", "Field3": "33 46 44" }, "geometry": null },
{ "type": "Feature", "properties": { "Field1": "Ορόκλινη ΛΑΡ", "Field2": "34 58 58", "Field3": "33 39 16" }, "geometry": null },
{ "type": "Feature", "properties": { "Field1": "Ορούντα ΛΕΥ", "Field2": "35 06 05", "Field3": "33 05 38" }, "geometry": null },
{ "type": "Feature", "properties": { "Field1": "Παραλίμνι ΑΜΜ", "Field2": "35 02 00", "Field3": "33 59 00" }, "geometry": null },
{ "type": "Feature", "properties": { "Field1": "Πάνω Λεύκαρα ΛΑΡ", "Field2": "34 52 06", "Field3": "33 18 45" }, "geometry": null },
{ "type": "Feature", "properties": { "Field1": "Πάφος ΠΑΦ", "Field2": "34 46 00", "Field3": "32 25 00" }, "geometry": null },
{ "type": "Feature", "properties": { "Field1": "Πέγεια ΠΑΦ", "Field2": "34 53 00", "Field3": "32 23 00" }, "geometry": null },
{ "type": "Feature", "properties": { "Field1": "Πόλη Χρυσοχούς ΠΑΦ", "Field2": "35 02 00", "Field3": "32 26 00" }, "geometry": null },
{ "type": "Feature", "properties": { "Field1": "Παλαιόμυλος ΛΕΜ", "Field2": "34 56 08", "Field3": "32 49 18" }, "geometry": null },
{ "type": "Feature", "properties": { "Field1": "Παλαιχώρι Μόρφου ΛΕΥ", "Field2": "34 55 22", "Field3": "33 05 42" }, "geometry": null },
{ "type": "Feature", "properties": { "Field1": "Παλαιχώρι Ορεινής ΛΕΥ", "Field2": "34 55 20", "Field3": "33 05 37" }, "geometry": null },
{ "type": "Feature", "properties": { "Field1": "Παλιομέτοχο ΛΕΥ", "Field2": "35 07 32", "Field3": "33 11 26" }, "geometry": null },
{ "type": "Feature", "properties": { "Field1": "Παλώδια ΛΕΜ", "Field2": "34 44 32 ", "Field3": "32 00 26" }, "geometry": null },
{ "type": "Feature", "properties": { "Field1": "Πάνω Ακουρδάλια ΠΑΦ", "Field2": "34 56 58", "Field3": "32 26 78" }, "geometry": null },
{ "type": "Feature", "properties": { "Field1": "Πάνω Αρόδες ΠΑΦ", "Field2": "34 56 19", "Field3": "32 24 44" }, "geometry": null },
{ "type": "Feature", "properties": { "Field1": "Πάνω Αρχιμανδρίτα ΠΑΦ", "Field2": "34 45 05", "Field3": "32 40 71" }, "geometry": null },
{ "type": "Feature", "properties": { "Field1": "Πάνω Δευτερά ΛΕΥ", "Field2": "35 04 44", "Field3": "33 15 50" }, "geometry": null },
{ "type": "Feature", "properties": { "Field1": "Πάνω Κουτραφάς ΛΕΥ", "Field2": "35 05 56", "Field3": "32 59 60" }, "geometry": null },
{ "type": "Feature", "properties": { "Field1": "Πάνω Κυβίδες ΛΕΜ", "Field2": "34 45 43", "Field3": "32 51 31" }, "geometry": null },
{ "type": "Feature", "properties": { "Field1": "Πάνω Παναγιά ΠΑΦ", "Field2": "34 55 20", "Field3": "32 37 78" }, "geometry": null },
{ "type": "Feature", "properties": { "Field1": "Πάνω Πλάτρες ΛΕΥ", "Field2": "34 53 16", "Field3": "32 51 51" }, "geometry": null },
{ "type": "Feature", "properties": { "Field1": "Πάνω Πύργος (Τηλλυρίας)", "Field2": "35 09 16", "Field3": "32 40 56" }, "geometry": null },
{ "type": "Feature", "properties": { "Field1": "Παραμάλι ΛΕΜ", "Field2": "34 41 36", "Field3": "32 47 56" }, "geometry": null },
{ "type": "Feature", "properties": { "Field1": "Παραμύθα ΛΕΜ", "Field2": "34 45 38", "Field3": "32 59 43" }, "geometry": null },
{ "type": "Feature", "properties": { "Field1": "Παρεκκλησιά ΛΕΜ", "Field2": "34 44 26", "Field3": "33 09 39" }, "geometry": null },
{ "type": "Feature", "properties": { "Field1": "Πάχνα ΛΕΜ", "Field2": "34 46 47", "Field3": "32 47 53" }, "geometry": null },
{ "type": "Feature", "properties": { "Field1": "Παχύαμμος ΛΕΥ", "Field2": "35 10 18", "Field3": "32 35 00" }, "geometry": null },
{ "type": "Feature", "properties": { "Field1": "Πεδουλάς ΛΕΥ", "Field2": "34 58 03", "Field3": "32 49 43" }, "geometry": null },
{ "type": "Feature", "properties": { "Field1": "Πελαθούσα ΛΕΜ", "Field2": "35 01 39", "Field3": "32 28 31" }, "geometry": null },
{ "type": "Feature", "properties": { "Field1": "Πελένδρι ΛΕΜ", "Field2": "34 53 54", "Field3": "32 58 07" }, "geometry": null },
{ "type": "Feature", "properties": { "Field1": "Πεντάκωμο ΛΕΜ", "Field2": "34 44 18", "Field3": "33 14 30" }, "geometry": null },
{ "type": "Feature", "properties": { "Field1": "Πενταλιά ΠΑΦ", "Field2": "34 51 21", "Field3": "32 37 13" }, "geometry": null },
{ "type": "Feature", "properties": { "Field1": "Πέρα (Ορεινής) ΛΕΥ", "Field2": "35 00 00", "Field3": "33 15 15" }, "geometry": null },
{ "type": "Feature", "properties": { "Field1": "Πέρα Πεδί ΛΕΜ", "Field2": "34 51 34", "Field3": "32 52 34" }, "geometry": null },
{ "type": "Feature", "properties": { "Field1": "Πέρα Χωριό (Νήσου) ΛΕΥ", "Field2": "35 00 42", "Field3": "33 23 25" }, "geometry": null },
{ "type": "Feature", "properties": { "Field1": "Περβόλια Λάρνακας ΛΑΡ", "Field2": "34 49 51", "Field3": "33 34 42" }, "geometry": null },
{ "type": "Feature", "properties": { "Field1": "Περιστερώνα Μόρφου ΛΕΥ", "Field2": "35 07 44", "Field3": "33 04 45" }, "geometry": null },
{ "type": "Feature", "properties": { "Field1": "Περιστερώνα Χρυσοχούς ΠΑΦ", "Field2": "34 59 26", "Field3": "32 29 21" }, "geometry": null },
{ "type": "Feature", "properties": { "Field1": "Πετροφάνι ΛΑΡ", "Field2": "35 02 45", "Field3": "33 31 10" }, "geometry": null },
{ "type": "Feature", "properties": { "Field1": "Πηγαίνια ΛΕΥ", "Field2": "35 10 09", "Field3": "32 39 24" }, "geometry": null },
{ "type": "Feature", "properties": { "Field1": "Πισσούρι ΛΕΜ", "Field2": "34 40 22", "Field3": "32 42 11" }, "geometry": null },
{ "type": "Feature", "properties": { "Field1": "Πιταρκού ΠΑΦ", "Field2": "34 50 13", "Field3": "32 32 03" }, "geometry": null },
{ "type": "Feature", "properties": { "Field1": "Πλατανίστεια ΛΕΜ", "Field2": "34 42 43", "Field3": "32 42 36" }, "geometry": null },
{ "type": "Feature", "properties": { "Field1": "Πλατανιστάσα ΛΕΥ", "Field2": "34 56 47", "Field3": "33 02 41" }, "geometry": null },
{ "type": "Feature", "properties": { "Field1": "Πολέμι ΠΑΦ", "Field2": "34 53 07", "Field3": "32 30 35" }, "geometry": null },
{ "type": "Feature", "properties": { "Field1": "Πολεμίδια ", "Field2": "34 41 58", "Field3": "32 59 49" }, "geometry": null },
{ "type": "Feature", "properties": { "Field1": "Πολιτικό ΛΕΥ", "Field2": "35 01 40", "Field3": "33 14 31" }, "geometry": null },
{ "type": "Feature", "properties": { "Field1": "Πολύστυπος ΛΕΥ", "Field2": "34 56 22", "Field3": "33 01 10" }, "geometry": null },
{ "type": "Feature", "properties": { "Field1": "Ποτάμι ΛΕΥ", "Field2": "35 06 17", "Field3": "33 01 42" }, "geometry": null },
{ "type": "Feature", "properties": { "Field1": "Ποταμιά ΛΕΥ", "Field2": "35 02 31", "Field3": "33 26 42" }, "geometry": null },
{ "type": "Feature", "properties": { "Field1": "Ποταμιού ΛΕΜ", "Field2": "34 49 26", "Field3": "32 48 24" }, "geometry": null },
{ "type": "Feature", "properties": { "Field1": "Ποταμίτισσα ΛΕΜ", "Field2": "34 54 27", "Field3": "32 59 22" }, "geometry": null },
{ "type": "Feature", "properties": { "Field1": "Πραιτώρι ΠΑΦ", "Field2": "34 50 55", "Field3": "32 44 43" }, "geometry": null },
{ "type": "Feature", "properties": { "Field1": "Πραστειό Αυδήμου ΛΕΜ", "Field2": "34 43 45", "Field3": "32 46 44" }, "geometry": null },
{ "type": "Feature", "properties": { "Field1": "Πραστειό Κελλακίο ΛΕΜ", "Field2": "34 48 40", "Field3": "33 08 35" }, "geometry": null },
{ "type": "Feature", "properties": { "Field1": "Πραστειό Κελοκεδάρων ΠΑΦ", "Field2": "35 10 49", "Field3": "32 56 29" }, "geometry": null },
{ "type": "Feature", "properties": { "Field1": "Πρόδρομος ΛΕΜ", "Field2": "34 56 59", "Field3": "32 49 50" }, "geometry": null },
{ "type": "Feature", "properties": { "Field1": "Πύλα ΛΑΡ", "Field2": "35 01 45", "Field3": "33 41 30" }, "geometry": null },
{ "type": "Feature", "properties": { "Field1": "Πυργά Λάρνακας ΛΑΡ", "Field2": "34 55 31", "Field3": "33 25 59" }, "geometry": null },
{ "type": "Feature", "properties": { "Field1": "Πύργος (Λεμεσού) ΛΕΜ", "Field2": "34 44 34", "Field3": "33 11 00" }, "geometry": null },
{ "type": "Feature", "properties": { "Field1": "Πωμός ΠΑΦ", "Field2": "35 09 35", "Field3": "32 32 42" }, "geometry": null },
{ "type": "Feature", "properties": { "Field1": "Στρόβολος ΛΕΥ", "Field2": "35 09 00", "Field3": "33 20 00" }, "geometry": null },
{ "type": "Feature", "properties": { "Field1": "Σαλαμιού ΠΑΦ", "Field2": "34 50 24", "Field3": "32 42 23" }, "geometry": null },
{ "type": "Feature", "properties": { "Field1": "Σανίδα ΛΕΜ", "Field2": "34 48 28", "Field3": "33 11 23" }, "geometry": null },
{ "type": "Feature", "properties": { "Field1": "Σαραμά ΠΑΦ", "Field2": "34 57 20", "Field3": "32 31 43" }, "geometry": null },
{ "type": "Feature", "properties": { "Field1": "Σαράντι ΛΕΥ", "Field2": "34 58 07", "Field3": "33 00 07" }, "geometry": null },
{ "type": "Feature", "properties": { "Field1": "Σιά ΛΕΥ", "Field2": "34 57 17", "Field3": "33 23 24" }, "geometry": null },
{ "type": "Feature", "properties": { "Field1": "Σίμου ΠΑΦ", "Field2": "34 56 29", "Field3": "32 30 17" }, "geometry": null },
{ "type": "Feature", "properties": { "Field1": "Σινά Όρος ΛΕΥ", "Field2": "35 00 30", "Field3": "32 53 57" }, "geometry": null },
{ "type": "Feature", "properties": { "Field1": "Σκαρίνου", "Field2": "34 49 23", "Field3": "33 21 31" }, "geometry": null },
{ "type": "Feature", "properties": { "Field1": "Σκούλλι ΠΑΦ", "Field2": "34 59 00", "Field3": "32 27 00" }, "geometry": null },
{ "type": "Feature", "properties": { "Field1": "Σκουριώτισσα (Φουκάσα) ΛΕΥ", "Field2": "35 05 28", "Field3": "32 53 05" }, "geometry": null },
{ "type": "Feature", "properties": { "Field1": "Σούνι-Ζανατζιά ΛΕΜ", "Field2": "34 44 23", "Field3": "32 52 58" }, "geometry": null },
{ "type": "Feature", "properties": { "Field1": "Σουσκιού ΠΑΦ", "Field2": "34 43 59", "Field3": "32 36 09" }, "geometry": null },
{ "type": "Feature", "properties": { "Field1": "Σοφτάδες ΛΑΡ", "Field2": "34 50 11", "Field3": "33 33 03" }, "geometry": null },
{ "type": "Feature", "properties": { "Field1": "Σπήλια ΛΕΥ", "Field2": "34 57 56", "Field3": "32 57 15" }, "geometry": null },
{ "type": "Feature", "properties": { "Field1": "Σπιτάλι ΛΕΜ", "Field2": "34 45 42", "Field3": "32 59 49" }, "geometry": null },
{ "type": "Feature", "properties": { "Field1": "Στατός-Άγιος Φώτιο ΠΑΦ", "Field2": "34 53 07", "Field3": "32 37 16" }, "geometry": null },
{ "type": "Feature", "properties": { "Field1": "Σταυροκόννου ΠΑΦ", "Field2": "34 47 06", "Field3": "32 37 13", "Field4": 9 }, "geometry": null },
{ "type": "Feature", "properties": { "Field1": "Σταυρός της Ψώκας", "Field2": "35 01 25", "Field3": "32 37 49", "Field4": 9 }, "geometry": null },
{ "type": "Feature", "properties": { "Field1": "Στενή ΠΑΦ", "Field2": "34 59 54", "Field3": "32 28 17" }, "geometry": null },
{ "type": "Feature", "properties": { "Field1": "Στρουμπί ΠΑΦ", "Field2": "34 53 00", "Field3": "32 28 56" }, "geometry": null },
{ "type": "Feature", "properties": { "Field1": "Συκόπετρα ΛΕΜ", "Field2": "34 52 42", "Field3": "33 06 44" }, "geometry": null },
{ "type": "Feature", "properties": { "Field1": "Συλίκου ΛΕΜ", "Field2": "34 49 56", "Field3": "32 53 20" }, "geometry": null },
{ "type": "Feature", "properties": { "Field1": "Σωτήρα Αμμοχώστου ΑΜΜ", "Field2": "34 01 36", "Field3": "33 57 01" }, "geometry": null },
{ "type": "Feature", "properties": { "Field1": "Σωτήρα Λεμεσού ΛΕΜ", "Field2": "34 42 44", "Field3": "32 51 47" }, "geometry": null },
{ "type": "Feature", "properties": { "Field1": "Τάλα ΠΑΦ", "Field2": "34 50 19", "Field3": "32 26 05" }, "geometry": null },
{ "type": "Feature", "properties": { "Field1": "Τεμπριά ΛΕΥ", "Field2": "35 01 40", "Field3": "32 53 30" }, "geometry": null },
{ "type": "Feature", "properties": { "Field1": "Τέρρα ΠΑΦ", "Field2": "34 57 58", "Field3": "32 25 27" }, "geometry": null },
{ "type": "Feature", "properties": { "Field1": "Τερσεφάνου ΛΑΡ", "Field2": "34 51 17", "Field3": "33 32 46" }, "geometry": null },
{ "type": "Feature", "properties": { "Field1": "Τίμη ΠΑΦ", "Field2": "34 43 56", "Field3": "32 30 55" }, "geometry": null },
{ "type": "Feature", "properties": { "Field1": "Τόχνη ΛΑΡ", "Field2": "34 46 50", "Field3": "33 19 24" }, "geometry": null },
{ "type": "Feature", "properties": { "Field1": "Τραχυπέδουλα ΠΑΦ", "Field2": "34 48 02", "Field3": "32 40 42" }, "geometry": null },
{ "type": "Feature", "properties": { "Field1": "Τραχώνι Λεμεσού ΛΕΜ", "Field2": "34 39 35", "Field3": "32 57 78" }, "geometry": null },
{ "type": "Feature", "properties": { "Field1": "Τρεις Ελιές ΛΕΜ", "Field2": "34 55 55", "Field3": "32 47 36" }, "geometry": null },
{ "type": "Feature", "properties": { "Field1": "Τρεμιθούσα Πάφου ΠΑΦ", "Field2": "34 49 01", "Field3": "32 26 49" }, "geometry": null },
{ "type": "Feature", "properties": { "Field1": "Τριμιθούσα Χρυσοχούς ΠΑΦ", "Field2": "34 58 27", "Field3": "32 29 15" }, "geometry": null },
{ "type": "Feature", "properties": { "Field1": "Τριμίκλινη ΛΕΜ", "Field2": "34 50 49", "Field3": "32 54 42" }, "geometry": null },
{ "type": "Feature", "properties": { "Field1": "Τρούλλοι ΛΑΡ", "Field2": "35 01 55", "Field3": "33 36 54" }, "geometry": null },
{ "type": "Feature", "properties": { "Field1": "Τσάδα ΠΑΦ", "Field2": "34 50 08", "Field3": "32 28 29" }, "geometry": null },
{ "type": "Feature", "properties": { "Field1": "Τσακκίστρα ΛΕΥ", "Field2": "35 01 01", "Field3": "32 43 22" }, "geometry": null },
{ "type": "Feature", "properties": { "Field1": "Τσέρι ΛΕΥ", "Field2": "35 04 31", "Field3": "33 19 44" }, "geometry": null },
{ "type": "Feature", "properties": { "Field1": "Ύψωνας", "Field2": "34 41 24", "Field3": "32 57 39" }, "geometry": null },
{ "type": "Feature", "properties": { "Field1": "Φάλια ΠΑΦ", "Field2": "34 51 35", "Field3": "32 35 21" }, "geometry": null },
{ "type": "Feature", "properties": { "Field1": "Φαρμακάς ΛΕΥ", "Field2": "34 54 43", "Field3": "33 08 10" }, "geometry": null },
{ "type": "Feature", "properties": { "Field1": "Φασλί ΠΑΦ", "Field2": "34 59 11", "Field3": "32 21 52" }, "geometry": null },
{ "type": "Feature", "properties": { "Field1": "Φασούλα Κελοκεδάρων ΠΑΦ", "Field2": "34 45 37", "Field3": "32 37 34" }, "geometry": null },
{ "type": "Feature", "properties": { "Field1": "Φασούλα Λεμεσού ΛΕΜ", "Field2": "34 45 42", "Field3": "33 01 37" }, "geometry": null },
{ "type": "Feature", "properties": { "Field1": "Φιλούσα Κελοκεδάρων ΠΑΦ", "Field2": "34 51 08", "Field3": "32 44 32" }, "geometry": null },
{ "type": "Feature", "properties": { "Field1": "Φιλούσα Χρυσοχούς ΠΑΦ", "Field2": "34 58 26", "Field3": "32 30 17" }, "geometry": null },
{ "type": "Feature", "properties": { "Field1": "Φλάσου ΛΕΥ", "Field2": "35 03 39", "Field3": "32 53 14" }, "geometry": null },
{ "type": "Feature", "properties": { "Field1": "Φοινί ΛΕΜ", "Field2": "34 53 00", "Field3": "32 50 00" }, "geometry": null },
{ "type": "Feature", "properties": { "Field1": "Φοινικάρια ΛΕΜ", "Field2": "34 45 07", "Field3": "33 05 52" }, "geometry": null },
{ "type": "Feature", "properties": { "Field1": "Φοίνικας ΠΑΦ", "Field2": "34 45 11", "Field3": "32 34 06" }, "geometry": null },
{ "type": "Feature", "properties": { "Field1": "Φοίτη ΠΑΦ", "Field2": "34 54 42", "Field3": "32 32 37" }, "geometry": null },
{ "type": "Feature", "properties": { "Field1": "Φρέναρος ΑΜΜ", "Field2": "35 02 27", "Field3": "33 55 09" }, "geometry": null },
{ "type": "Feature", "properties": { "Field1": "Φτερικούδι ΛΕΥ", "Field2": "34 56 32", "Field3": "33 04 09" }, "geometry": null },
{ "type": "Feature", "properties": { "Field1": "Φυκάρδου ΛΕΥ", "Field2": "34 57 32", "Field3": "33 10 16" }, "geometry": null },
{ "type": "Feature", "properties": { "Field1": "Χανδριά ΛΕΜ", "Field2": "34 56 34", "Field3": "32 59 40" }, "geometry": null },
{ "type": "Feature", "properties": { "Field1": "Χλώρακα ΠΑΦ", "Field2": "34 48 04", "Field3": "32 24 31" }, "geometry": null },
{ "type": "Feature", "properties": { "Field1": "Χοιροκοιτία ΛΑΡ", "Field2": "34 47 50", "Field3": "33 20 01" }, "geometry": null },
{ "type": "Feature", "properties": { "Field1": "Χολέτρια ΠΑΦ", "Field2": "34 45 45", "Field3": "32 35 59" }, "geometry": null },
{ "type": "Feature", "properties": { "Field1": "Χόλη ΠΑΦ", "Field2": "34 58 45", "Field3": "32 26 45" }, "geometry": null },
{ "type": "Feature", "properties": { "Field1": "Χούλου ΠΑΦ", "Field2": "34 52 16", "Field3": "32 33 27" }, "geometry": null },
{ "type": "Feature", "properties": { "Field1": "Χρυσοχού Πολυς ΠΑΦ", "Field2": "35 02 14", "Field3": "32 25 45" }, "geometry": null },
{ "type": "Feature", "properties": { "Field1": "Ψάθι ΠΑΦ", "Field2": "34 53 55", "Field3": "32 31 48" }, "geometry": null },
{ "type": "Feature", "properties": { "Field1": "Ψεματισμένος ΛΑΡ", "Field2": "34 45 59", "Field3": "33 20 42" }, "geometry": null },
{ "type": "Feature", "properties": { "Field1": "Ψευδάς ΛΑΡ", "Field2": "34 57 03", "Field3": "33 27 48" }, "geometry": null },
{ "type": "Feature", "properties": { "Field1": "Ψημολόφου ΛΕΥ", "Field2": "35 03 38", "Field3": "33 15 36" }, "geometry": null }
]
}
