{
"type": "FeatureCollection",
"name": "AllPages",
"features": [
{ "type": "Feature", "properties": { }, "geometry": null },
{ "type": "Feature", "properties": { "Field2": "Name-code\ndesignator", "Field7": "Geographical\ncoordinates", "Field11": "ATS or other routes where the\npoint is located", "Field16": "Remarks,\nSupplementary definition of positions" }, "geometry": null },
{ "type": "Feature", "properties": { "Field2": "ABOHE", "Field7": "315639N\n0335900E", "Field16": "LCCC/LLLL BDRY\nLCA 169.0° 176.3 NM (100 FT)\nPHA 150.0° 181.6 NM (100 FT)" }, "geometry": null },
{ "type": "Feature", "properties": { "Field2": "ADLAS", "Field7": "345743N\n0331912E", "Field11": "M601, R19", "Field16": "SID, STAR LCLK\nFRA (I)\nLCA 284.0° 16 NM (100 FT)\nPHA 065.0° 42.9 NM (100 FT)" }, "geometry": null },
{ "type": "Feature", "properties": { "Field2": "ADUNI", "Field7": "344305N\n0321502E", "Field16": "PHA 272.0° 12.6 NM (100 FT)" }, "geometry": null },
{ "type": "Feature", "properties": { "Field2": "AFONO", "Field7": "331043N\n0321702E", "Field16": "FRA (I)\nLCA 213.8° 121.5 NM (100 FT)" }, "geometry": null },
{ "type": "Feature", "properties": { "Field2": "AGUZO", "Field7": "334956N\n0333503E", "Field11": "L78, N159", "Field16": "FRA (I)\nLCA 177.0° 62.4 NM (100 FT)" }, "geometry": null },
{ "type": "Feature", "properties": { "Field2": "ALKIS", "Field7": "351200N\n0300000E", "Field11": "L609, M42", "Field16": "LCCC/LGGG BDRY\nFRA (EX)\nLCA 272.0° 179.7 NM (100 FT)\nPHA 279.0° 127 NM (100 FT)" }, "geometry": null },
{ "type": "Feature", "properties": { "Field2": "ALSUS", "Field7": "350206N\n0343924E", "Field11": "B15,L620, M67,M978,R18, R78,\nN71", "Field16": "FRA (I)\nFRA (A): LCLK\nLCA 074.0° 51.8 NM (100 FT)\nPHA 074.0° 107.9 NM (100 FT)" }, "geometry": null },
{ "type": "Feature", "properties": { "Field2": "AMAKO", "Field7": "344725N\n0335601E", "Field11": "M601, R655", "Field16": "SID, STAR LCLK\nFRA (I)\nLCA 103.0° 16 NM (100 FT)\nPHA 081.0° 70.6 NM (100 FT)" }, "geometry": null },
{ "type": "Feature", "properties": { "Field2": "ANANE", "Field7": "341755N\n0324341E", "Field11": "A28, M28, M42, M67, Z89", "Field16": "FRA (I)\nFRA (AD): LCPH\nFRA (A): LCLK\nLCA 227.0° 56.2 NM (100 FT)\nPHA 151.0° 27.1 NM (100 FT)" }, "geometry": null },
{ "type": "Feature", "properties": { "Field2": "ANIDE", "Field7": "340949N\n0300000E", "Field11": "L53", "Field16": "LCCC/LGGG BDRY\nFRA (X)\nPHA 251.0° 128.6 NM (100 FT)" }, "geometry": null },
{ "type": "Feature", "properties": { "Field2": "APLON", "Field7": "335200N\n0320400E", "Field11": "A28, G2, L550, L609, M28, M32,\nN159, P68", "Field16": "FRA (I)\nFRA (AD): LCPH\nFRA (AD): LCRA\nPHA 198.0° 55.1 NM (100 FT)" }, "geometry": null },
{ "type": "Feature", "properties": { "Field2": "AZANA", "Field7": "331435N\n0333013E", "Field11": "P68", "Field16": "FRA (I)\nLCA 178.2° 97.8 NM (100 FT)" }, "geometry": null },
{ "type": "Feature", "properties": { "Field2": "AZERE", "Field7": "331205N\n0335408E", "Field11": "L189", "Field16": "FRA (I)\nFRA (A): LLXX\nFRA (A): OJXX\nLCA 167.0° 101.1 NM (100 FT)\nPHA 137.0° 114.2 NM (100 FT)" }, "geometry": null },
{ "type": "Feature", "properties": { "Field2": "Name-code\ndesignator", "Field7": "Geographical\ncoordinates", "Field11": "ATS or other routes where the\npoint is located", "Field16": "Remarks,\nSupplementary definition of positions" }, "geometry": null },
{ "type": "Feature", "properties": { "Field2": "BALMA", "Field7": "342900N\n0350300E", "Field11": "B15, L620, M601, R655, W17", "Field16": "LCCC/OLBB BDRY\nFRA (EX)\nFRA (D): OLBA\nLCA 103.0° 74.3 NM (100 FT)\nPHA 091.0° 126.8 NM (100 FT)" }, "geometry": null },
{ "type": "Feature", "properties": { "Field2": "BAPAX", "Field7": "354206N\n0341027E", "Field11": "B15, L620, M13", "Field16": "FRA (I)\nLCA 023.0° 56.5 NM (100 FT)" }, "geometry": null },
{ "type": "Feature", "properties": { "Field2": "BETID", "Field7": "342712N\n0325806E", "Field11": "A28, M28", "Field16": "LCLK SID, STAR\nFRA (I)\nLCA 228.0° 41.1 NM (100 FT)\nPHA 119.0° 27.7 NM (100 FT)" }, "geometry": null },
{ "type": "Feature", "properties": { "Field2": "BIRES", "Field7": "330545N\n0325218E", "Field11": "N134, N71, Z89", "Field16": "FRA (I)\nLCA 194.0° 112.9 NM (100 FT)" }, "geometry": null },
{ "type": "Feature", "properties": { "Field2": "BONEK", "Field7": "350423N\n0325605E", "Field11": "M601, R19", "Field16": "SID, STAR LCLK\nFRA (I)\nFRA (A): LCLK\nLCA 285.0° 36.1 NM (100 FT)\nPHA 039.0° 30.3 NM (100 FT)" }, "geometry": null },
{ "type": "Feature", "properties": { "Field2": "BOSIS", "Field7": "343724N\n0334424E", "Field11": "B17, N131", "Field16": "SID, STAR, CTR LCLK\nFRA (I)\nLCA 154.0° 16 NM (100 FT)\nPHA 090.0° 61.3 NM (100 FT)" }, "geometry": null },
{ "type": "Feature", "properties": { "Field2": "DAFNA", "Field7": "323236N\n0341348E", "Field11": "W13", "Field16": "LCCC/LLLL BDRY\nFRA (E)\nFRA (D): LLBG\nLCA 162.0° 142.7 NM (100 FT)" }, "geometry": null },
{ "type": "Feature", "properties": { "Field2": "DAROS", "Field7": "350042N\n0330854E", "Field11": "M601, R19", "Field16": "SID, STAR, CTR LCLK\nFRA (I)\nLCA 284.0° 25 NM (100 FT)\nPHA 055.0° 36.5 NM (100 FT)" }, "geometry": null },
{ "type": "Feature", "properties": { "Field2": "DASNI", "Field7": "353700N\n0305100E", "Field11": "A16, M601, M855, R19, W195,\nM32", "Field16": "FRA (I)\nLCA 284.0° 143.5 NM (100 FT)\nPHA 299.0° 97.8 NM (100 FT)" }, "geometry": null },
{ "type": "Feature", "properties": { "Field2": "DESPO", "Field7": "342654N\n0342254E", "Field11": "L78, N71, P42, R18, R19, M31", "Field16": "FRA (I)\nFRA (A): OLBA\nLCA 119.0° 45.2 NM (100 FT)" }, "geometry": null },
{ "type": "Feature", "properties": { "Field2": "DIPOS", "Field7": "344524N\n0324812E", "Field11": "W195, M31", "Field16": "CTR LCPH\nFRA (I)\nLCA 256.0° 41.2 NM (100 FT)\nPHA 075.0° 15 NM (100 FT)" }, "geometry": null },
{ "type": "Feature", "properties": { "Field2": "DIRRE", "Field7": "340154N\n0343717E", "Field11": "P21", "Field16": "LCCC/OLBB BDRY\nLCA 130.0° 70.6 NM (100 FT)\nPHA 105.0° 112.7 NM (100 FT)" }, "geometry": null },
{ "type": "Feature", "properties": { "Field2": "DOREN", "Field7": "355556N\n0331658E", "Field11": "A28, N131", "Field16": "LCCC/LTAA BDRY\nLCA 340.2° 65.7 NM (100 FT)\nPHA 022.2° 82.5 NM (100 FT)" }, "geometry": null },
{ "type": "Feature", "properties": { "Field2": "ELIKA", "Field7": "334955N\n0343500E", "Field11": "G2, N159", "Field16": "LCCC/OLBB FIR BDRY\nFRA (E)\nFRA (D): OLBA" }, "geometry": null },
{ "type": "Feature", "properties": { "Field2": "EMEDA", "Field7": "342854N\n0334812E", "Field11": "B17, L13, L36, L189, M67, N131", "Field16": "SID, STAR, CTR LCLK\nFRA (I)\nFRA (AD): LCLK\nFRA (AD): LCRA\nLCA 155.0° 25 NM (100 FT)\nPHA 097.0° 65.7 NM (100 FT)" }, "geometry": null },
{ "type": "Feature", "properties": { "Field2": "EMILI", "Field7": "343820N\n0340240E", "Field11": "M67, R19, M31", "Field16": "SID, STAR LCLK\nFRA (I)\nLCA 119.0° 25 NM (100 FT)\nPHA 088.0° 76.3 NM (100 FT)" }, "geometry": null },
{ "type": "Feature", "properties": { "Field2": "ENIAS", "Field7": "344026N\n0322911E", "Field16": "PHA 197.8° 2.5 NM (100 FT)" }, "geometry": null },
{ "type": "Feature", "properties": { "Field2": "ESERI", "Field7": "342855N\n0322308E", "Field11": "M32, M42", "Field16": "FRA (I)\nLCA 245.0° 65.7 NM (100 FT)\nPHA 198.0° 15 NM (100 FT)" }, "geometry": null },
{ "type": "Feature", "properties": { "Field2": "EVENO", "Field7": "355000N\n0300000E", "Field11": "M601, R19", "Field16": "LCCC/LGGG BDRY\nFRA (EX)\nLCA 284.0° 187 NM (100 FT)\nPHA 295.0° 140.2 NM (100 FT)" }, "geometry": null },
{ "type": "Feature", "properties": { "Field2": "EVORA", "Field7": "332400N\n0305700E", "Field16": "FRA (I)\nLCA 232.0° 159.8 NM (100 FT)\nPHA 220.0° 110.4 NM (100 FT)" }, "geometry": null },
{ "type": "Feature", "properties": { "Field2": "GENOS", "Field7": "344044N\n0315404E", "Field11": "M31, M42", "Field16": "SID, STAR LCPH\nFRA (I)\nFRA (D): LCPH\nFRA (D): LCLK\nLCA 258.0° 86 NM (100 FT)\nPHA 261.0° 30 NM (100 FT)" }, "geometry": null },
{ "type": "Feature", "properties": { "Field2": "GIPRO", "Field7": "344117N\n0330854E", "Field16": "SID, STAR LCLK\nLCA 240.0° 26.1 NM (100 FT)\nPHA 089.0° 31.9 NM (100 FT)" }, "geometry": null },
{ "type": "Feature", "properties": { "Field2": "GIRKI", "Field7": "353501N\n0300000E", "Field16": "LCCC/LGGG BDRY\nLCA 280.0° 183.2 NM (100 FT)\nPHA 289.0° 133.9 NM (100 FT)" }, "geometry": null },
{ "type": "Feature", "properties": { "Field2": "IDAKU", "Field7": "340507N\n0324158E", "Field11": "L35, Z89", "Field16": "FRA (I)\nFRA (D): LCPH\nFRA (D): LCRA\nLCA 219.0° 65.8 NM (100 FT)\nPHA 161.0° 38.7 NM (100 FT)" }, "geometry": null },
{ "type": "Feature", "properties": { "Field2": "IREFA", "Field7": "342503N\n0332508E", "Field11": "M67", "Field16": "FRA (I)\nLCA 195.0° 29.1 NM (100 FT)" }, "geometry": null },
{ "type": "Feature", "properties": { "Field2": "IVETI", "Field7": "344431N\n0324217E", "Field11": "W195, M31", "Field16": "SID, STAR LCPH\nCTR LCLK-LCPH\nFRA (I)\nLCA 256.0° 46.2 NM (100 FT)\nPHA 075.0° 10 NM (100 FT)" }, "geometry": null },
{ "type": "Feature", "properties": { "Field2": "KAVOS", "Field7": "334400N\n0300000E", "Field11": "M1, N159", "Field16": "LCCC/LGGG BDRY\nFRA (EX)\nLCA 245.0° 192.7 NM (100 FT)\nPHA 240.0° 137.8 NM (100 FT)" }, "geometry": null },
{ "type": "Feature", "properties": { "Field2": "KEREN", "Field7": "322232N\n0340445E", "Field11": "L189, N134", "Field16": "LCCC/LLLL BDRY\nFRA (X)\nLCA 166.0° 151.3 NM (100 FT)\nPHA 145.0° 160.6 NM (100 FT)" }, "geometry": null },
{ "type": "Feature", "properties": { "Field2": "KOBER", "Field7": "344437N\n0340624E", "Field11": "M601, R655", "Field16": "SID, STAR, CTR LCLK\nFRA (I)\nFRA (AD): LCLK\nLCA 103.0° 25 NM (100 FT)\nPHA 083.0° 79.2 NM (100 FT)" }, "geometry": null },
{ "type": "Feature", "properties": { "Field2": "KOMEZ", "Field7": "341435N\n0305406E", "Field11": "M855, N134", "Field16": "FRA (I)\nPHA 246.0° 84.4 NM (100 FT)" }, "geometry": null },
{ "type": "Feature", "properties": { "Field2": "KONFO", "Field7": "322542N\n0340656E", "Field11": "L609", "Field16": "LCCC/LLLL BDRY\nFRA (X)\nLCA 165.0° 148.4 NM (100 FT)" }, "geometry": null },
{ "type": "Feature", "properties": { "Field2": "KRASI", "Field7": "351502N\n0343006E", "Field16": "FRA (I)\nFRA (A): LCLK\nLCA 062.1° 48.7 NM (100 FT)" }, "geometry": null },
{ "type": "Feature", "properties": { "Field2": "KUKLA", "Field7": "341442N\n0344448E", "Field11": "R19, M31", "Field16": "LCCC/OLBB BDRY\nFRA (EX)\nFRA (D): OLBA\nLCA 119.0° 67.1 NM (100 FT)\nPHA 099.0° 114.6 NM (100 FT)" }, "geometry": null },
{ "type": "Feature", "properties": { "Field2": "KUKUS", "Field7": "345747N\n0332646E", "Field16": "LCA 296.4° 10.36 NM (100 FT)" }, "geometry": null },
{ "type": "Feature", "properties": { "Field2": "KURSA", "Field7": "344216N\n0324253E", "Field16": "SID,STAR LCLK\nLCA 253.0° 46.1 NM (100 FT)\nPHA 088.0° 10.3 NM (100 FT)" }, "geometry": null },
{ "type": "Feature", "properties": { "Field2": "LAKTO", "Field7": "323800N\n0320500E", "Field11": "L324,N71, W11", "Field16": "LCCC/HECC BDRY\nFRA (EX)\nLCA 185.0° 161.2 NM (100 FT)\nPHA 163.0° 152.4 NM (100 FT)" }, "geometry": null },
{ "type": "Feature", "properties": { "Field2": "LEDRA", "Field7": "331200N\n0330300E", "Field11": "L609, N71, W11", "Field16": "FRA (I)\nLCA 191.0° 104.2 NM (100 FT)\nPHA 158.0° 94.5 NM (100 FT)" }, "geometry": null },
{ "type": "Feature", "properties": { "Field2": "LOSOS", "Field7": "344236N\n0332212E", "Field11": "A28, M28", "Field16": "CTR LCLK\nFRA (I)\nLCA 228.0° 16 NM (100 FT)\nPHA 085.0° 42.8 NM (100 FT)" }, "geometry": null },
{ "type": "Feature", "properties": { "Field2": "LUBES", "Field7": "345512N\n0324436E", "Field11": "M978, R78", "Field16": "CTR LCLK\nFRA (I)\nLCA 269.0° 43.6 NM (100 FT)\nPHA 038.0° 17.1 NM (100 FT)" }, "geometry": null },
{ "type": "Feature", "properties": { "Field2": "LUTIG", "Field7": "353146N\n0300000E", "Field16": "LCCC/LGGG BDRY\nLCA 279.0° 182.6 NM (100 FT)\nPHA 288.0° 132.7 NM (100 FT)" }, "geometry": null },
{ "type": "Feature", "properties": { "Field2": "MAROS", "Field7": "343700N\n0305300E", "Field11": "A16, L609, M31, M67, M855", "Field16": "FRA (I)\nPHA 261.0° 80.5 NM (100 FT)" }, "geometry": null },
{ "type": "Feature", "properties": { "Field2": "MERVA", "Field7": "324654N\n0343238E", "Field11": "B17,P42, P68, Y20, N131", "Field16": "LCCC/LLLL BDRY\nRVSM entry/exit point\nFRA (EX)\nFRA (AD): LLHA\nLCA 155.0° 133.4 NM (100 FT)\nPHA 133.0° 154.1 NM (100 FT)" }, "geometry": null },
{ "type": "Feature", "properties": { "Field2": "MEZUS", "Field7": "342503N\n0320332E", "Field11": "M67", "Field16": "FRA (I)\nFRA (AD): LCRA\nLCA 246.0° NM (100 FT)\nPHA 227.0° 28.3 NM (100 FT)" }, "geometry": null },
{ "type": "Feature", "properties": { "Field2": "NIKAS", "Field7": "351136N\n0354300E", "Field11": "L619, M978, R78, W10, W17", "Field16": "LCCC/OSTT BDRY\nFRA (EX)\nFRA (AD): OSLK\nLCA 074.0° 104.8 NM (100 FT)\nPHA 074.0° 161 NM (100 FT)" }, "geometry": null },
{ "type": "Feature", "properties": { "Field2": "NIMSI", "Field7": "343937N\n0321005E", "Field16": "LCA 256.0° 73.2 NM (100 FT)\nPHA 255.0° 17 NM (100 FT)" }, "geometry": null },
{ "type": "Feature", "properties": { "Field2": "NORDI", "Field7": "344748N\n0330518E", "Field11": "W195, M31", "Field16": "CTR LCLK\nFRA (I)\nLCA 256.0° 26.9 NM (100 FT)\nPHA 075.0° 29.2 NM (100 FT)" }, "geometry": null },
{ "type": "Feature", "properties": { "Field2": "ODELO", "Field7": "333938N\n0332252E", "Field11": "L36, L78", "Field16": "FRA (I)\nLCA 189.6° 73.6 NM (100 FT)" }, "geometry": null },
{ "type": "Feature", "properties": { "Field2": "OFTOS", "Field7": "333114N\n0333500E", "Field16": "LCA 181.5° 81.0 NM (100 FT)" }, "geometry": null },
{ "type": "Feature", "properties": { "Field2": "OTESA", "Field7": "345543N\n0332605E", "Field11": "M601, R19", "Field16": "SID,STAR LCLK\nFRA (I)\nLCA 284.0° 10 NM (100 FT)\nPHA 069.0° 47.7 NM (100 FT)" }, "geometry": null },
{ "type": "Feature", "properties": { "Field2": "OTHON", "Field7": "342724N\n0300000E", "Field11": "N128", "Field16": "LCCC/LGGG BDRY\nFRA (X)\nPHA 259.0° 125.1 NM (100 FT)" }, "geometry": null },
{ "type": "Feature", "properties": { "Field2": "Name-code\ndesignator", "Field7": "Geographical\ncoordinates", "Field11": "ATS or other routes where the\npoint is located", "Field16": "Remarks,\nSupplementary definition of positions" }, "geometry": null },
{ "type": "Feature", "properties": { "Field2": "PASOS", "Field7": "321300N\n0330600E", "Field11": "L550", "Field16": "LCCC/HECC BDRY\nFRA (EX)\nLCA 185.0° 161.2 NM (100 FT)\nPHA 163.0° 152.4 NM (100 FT)" }, "geometry": null },
{ "type": "Feature", "properties": { "Field2": "PEDER", "Field7": "351041N\n0305153E", "Field11": "A16, M855", "Field16": "FRA (I)\nLCA 274.0° 137.3 NM (100 FT)\nPHA 285.0° 85.6 NM (100 FT)" }, "geometry": null },
{ "type": "Feature", "properties": { "Field2": "PEFKO", "Field7": "344508N\n0331149E", "Field16": "LCA 251.0° 22.4 NM (100 FT)" }, "geometry": null },
{ "type": "Feature", "properties": { "Field2": "PIKOG", "Field7": "324931N\n0333729E", "Field11": "L35, L609, Z89", "Field16": "FRA (I)\nFRA (A): LLXX\nFRA (A): OJXX\nLCA 175.0° 122.6 NM (100 FT)\nPHA 149.0° 126.1 NM (100 FT)" }, "geometry": null },
{ "type": "Feature", "properties": { "Field2": "RASDA", "Field7": "330600N\n0305700E", "Field11": "A16, A28, M28, M855", "Field16": "LCCC/HECC BDRY\nATS/MET REP.\nFRA (EX)\nLCA 185.0° 161.2 NM (100 FT)\nPHA 163.0° 152.4 NM (100 FT)" }, "geometry": null },
{ "type": "Feature", "properties": { "Field2": "REXAL", "Field7": "344324N\n0335342E", "Field11": "R19, M31", "Field16": "CTR LCLK\nFRA (I)\nLCA 119.0° 16 NM (100 FT)\nPHA 084.0° 68.7 NM (100 FT)" }, "geometry": null },
{ "type": "Feature", "properties": { "Field2": "RIMEX", "Field7": "344044N\n0332228E", "Field16": "SID, STAR LCLK\nLCA 222.0° 17 NM (100 FT)\nPHA 088.0° 43 NM (100 FT)" }, "geometry": null },
{ "type": "Feature", "properties": { "Field2": "RINNA", "Field7": "344020N\n0333128E", "Field16": "LCA 203.0° 13 NM (100 FT)" }, "geometry": null },
{ "type": "Feature", "properties": { "Field2": "ROKIK", "Field7": "344934N\n0334803E", "Field16": "LCA 108.0° 9.1 NM (100 FT)" }, "geometry": null },
{ "type": "Feature", "properties": { "Field2": "RUBIK", "Field7": "345412N\n0330454E", "Field11": "M978, R78", "Field16": "CTR LCLK\nFRA (I)\nLCA 269.0° 26.9 NM (100 FT)\nPHA 063.0° 30.7 NM (100 FT)" }, "geometry": null },
{ "type": "Feature", "properties": { "Field2": "RUDER", "Field7": "345712N\n0340730E", "Field11": "M13, M978, R78", "Field16": "SID, STAR, CTR LCLK\nFRA (I)\nFRA (D): LCLK\nLCA 074.0° 25.1 NM (100 FT)\nPHA 074.0° 81.3 NM (100 FT)" }, "geometry": null },
{ "type": "Feature", "properties": { "Field2": "SAFTA", "Field7": "334744N\n0313958E", "Field11": "L324, N134, N159", "Field16": "FRA (I)\nPHA 212.0° 69 NM (100 FT)" }, "geometry": null },
{ "type": "Feature", "properties": { "Field2": "SKONI", "Field7": "322821N\n0331516E", "Field16": "LCA 182.0° 145 NM (100 FT)\nPHA 159.0° 139.3 NM (100 FT)" }, "geometry": null },
{ "type": "Feature", "properties": { "Field2": "SOBOS", "Field7": "345530N\n0335642E", "Field11": "M978, R78", "Field16": "SID, STAR, CTR LCLK\nFRA (I)\nLCA 074.0° 16.1 NM (100 FT)\nPHA 075.0° 72.2 NM (100 FT)" }, "geometry": null },
{ "type": "Feature", "properties": { "Field2": "STEPA", "Field7": "324859N\n0322349E", "Field11": "L13, L53, L550, L78, M1, N71", "Field16": "FRA (I)\nPHA 178.0° 113.6 NM (100 FT)" }, "geometry": null },
{ "type": "Feature", "properties": { "Field2": "SUVAS", "Field7": "321010N\n0335933E", "Field11": "L53, N128", "Field16": "LCCC/LLLL BDRY\nRVSM entry/exit point\nFRA (E)\nFRA (D): LLBG\nLCA 168.0° 162.9 NM (100 FT)\nPHA 148.0° 169.5 NM (100 FT)" }, "geometry": null },
{ "type": "Feature", "properties": { "Field2": "TEZAK", "Field7": "332750N\n0314711E", "Field11": "L324, N128", "Field16": "FRA (I)\nPHA 201.0° 82.9 NM (100 FT)" }, "geometry": null },
{ "type": "Feature", "properties": { "Field2": "TIROS", "Field7": "331800N\n0341900E", "Field11": "B17, N131", "Field16": "FRA (I)\nLCA 155.0° 100.3 NM (100 FT)\nPHA 128.0° 123.7 NM (100 FT)" }, "geometry": null },
{ "type": "Feature", "properties": { "Field2": "TOBAL", "Field7": "345530N\n0320724E", "Field11": "M978, R78, W195, M32", "Field16": "SID, STAR, CTR LCPH\nFRA (I)\nFRA (A): LCPH\nLCA 268.0° 74.2 NM (100 FT)\nPHA 299.0° 22.8 NM (100 FT)" }, "geometry": null },
{ "type": "Feature", "properties": { "Field2": "TOMBI", "Field7": "360226N\n0304928E", "Field11": "A16, M855", "Field16": "LCCC/LTAA BDRY\nFRA (EX)\nFRA (AD): LTAI\nLCA 292.7° 154.1 NM (100 FT)\nPHA 309.3° 114.7 NM (100 FT)" }, "geometry": null },
{ "type": "Feature", "properties": { "Field2": "TOSKA", "Field7": "345800N\n0300000E", "Field11": "M67, M978, R78", "Field16": "LCCC/LGGG BDRY\nFRA (EX)\nLCA 268.0° 179 NM (100 FT)\nPHA 273.0° 124.7 NM (100 FT)" }, "geometry": null },
{ "type": "Feature", "properties": { "Field2": "TUVLO", "Field7": "341439N\n0333531E", "Field16": "LCA 178.0° 37.7 NM (100 FT)\nPHA 112.0° 60.7 NM (100 FT)" }, "geometry": null },
{ "type": "Feature", "properties": { "Field2": "TUZIB", "Field7": "340148N\n0335018E", "Field11": "L189, L78, P21", "Field16": "FRA (I)\nLCA 163.0° 51.6 NM (100 FT)\nPHA 116.0° 77.8 NM (100 FT)" }, "geometry": null },
{ "type": "Feature", "properties": { "Field2": "USEBE", "Field7": "335710N\n0305504E", "Field11": "M855, N128", "Field16": "FRA (I)\nPHA 235.0° 91.1 NM (100 FT)" }, "geometry": null },
{ "type": "Feature", "properties": { "Field2": "VADUS", "Field7": "351819N\n0320329E", "Field11": "M601, R19", "Field16": "FRA (I)\nLCA 284.0° 81.4 NM (100 FT)\nPHA 323.0° 41.9 NM (100 FT)" }, "geometry": null },
{ "type": "Feature", "properties": { "Field2": "VANZA", "Field7": "344528N\n0300000E", "Field11": "N134", "Field16": "LCCC/LGGG BDRY\nFRA (E)\nPHA 267.0° 123.9 NM (100 FT)" }, "geometry": null },
{ "type": "Feature", "properties": { "Field2": "VELOX", "Field7": "334900N\n0340500E", "Field11": "B17, G2, M42, N159, N71, R18,\nW11, W13, N131", "Field16": "FRA (I)\nFRA (A): LCRA\nLCA 155.0° 67.2 NM (100 FT)\nPHA 119.0° 95 NM (100 FT)" }, "geometry": null },
{ "type": "Feature", "properties": { "Field2": "VESAR", "Field7": "355456N\n0340058E", "Field11": "B15,L619,L620,W10", "Field16": "LCCC/LTAA BDRY\nFRA (EX)\nLCA 011.8° 65.4 NM (100 FT)\nPHA 040.2° 103.5 NM (100 FT)" }, "geometry": null },
{ "type": "Feature", "properties": { "Field2": "VOLBE", "Field7": "344808N\n0341742E", "Field11": "M67", "Field16": "FRA (I)\nLCA 092.0° 33.3 NM (100 FT)\nPHA 081.0° 88.6 NM (100 FT)" }, "geometry": null },
{ "type": "Feature", "properties": { "Field2": "ZOMBA", "Field7": "334926N\n0335114E", "Field11": "L189, N159, Y20", "Field16": "FRA (I)\nLCA 165.0° 63.8 NM (100 FT)" }, "geometry": null },
{ "type": "Feature", "properties": { "Field2": "ZUKKO", "Field7": "323342N\n0335657E", "Field11": "L189, L609", "Field16": "FRA (I)\nLCA 168.0° 139.4 NM (100 FT)" }, "geometry": null },
{ "type": "Feature", "properties": { }, "geometry": null },
{ "type": "Feature", "properties": { "Field1": "AIRAC AIP AMDT 001/25", "Field17": "Department of Civil Aviation" }, "geometry": null }
]
}
