{ "type": "FeatureCollection", "features": [{"type":"Feature","id":1,"properties":{"_id":"627ba9653145c095364c0cb4","name":"MOVIL","compulsory":true,"country":"IL","airports":["62614be75e9ded571044a5c8"],"elevation":{"value":141,"unit":0,"referenceDatum":1},"createdAt":"2022-05-11T12:17:41.678Z","updatedAt":"2022-05-11T18:55:24.984Z","createdBy":"PZo493xbdLP9IH3qMzt97PzLf7Y2","updatedBy":"OPONcQnzWGOLiJSceNaf8pvx1fA2","elevationGeoid":{"geoidHeight":21.476927999999987,"hae":162.476928}},"geometry":{"type":"Point","coordinates":[35.233333333333334,32.759166666666665]}}, {"type":"Feature","id":2,"properties":{"_id":"627baa733145c095364c0d0c","name":"HASID","compulsory":true,"country":"IL","airports":["62614be75e9ded571044a5c8"],"elevation":{"value":10,"unit":0,"referenceDatum":1},"createdAt":"2022-05-11T12:22:11.736Z","updatedAt":"2022-05-11T18:55:27.714Z","createdBy":"PZo493xbdLP9IH3qMzt97PzLf7Y2","updatedBy":"OPONcQnzWGOLiJSceNaf8pvx1fA2","elevationGeoid":{"geoidHeight":21.113687999999996,"hae":31.113687999999996}},"geometry":{"type":"Point","coordinates":[35.077777777777776,32.74666666666667]}}, {"type":"Feature","id":3,"properties":{"_id":"627bab043145c095364c0d5e","name":"DALIA","compulsory":true,"country":"IL","airports":["62614be75e9ded571044a5c8"],"elevation":{"value":214,"unit":0,"referenceDatum":1},"createdAt":"2022-05-11T12:24:36.435Z","updatedAt":"2022-05-11T18:55:30.232Z","createdBy":"PZo493xbdLP9IH3qMzt97PzLf7Y2","updatedBy":"OPONcQnzWGOLiJSceNaf8pvx1fA2","elevationGeoid":{"geoidHeight":20.91399000000004,"hae":234.91399000000004}},"geometry":{"type":"Point","coordinates":[35.083333333333336,32.596944444444446]}}, {"type":"Feature","id":4,"properties":{"_id":"627babb73145c095364c0db0","name":"ZMGID","compulsory":false,"country":"IL","airports":["62614be75e9ded571044a5c8"],"elevation":{"value":108,"unit":0,"referenceDatum":1},"createdAt":"2022-05-11T12:27:35.440Z","updatedAt":"2022-05-11T18:55:32.741Z","createdBy":"PZo493xbdLP9IH3qMzt97PzLf7Y2","updatedBy":"OPONcQnzWGOLiJSceNaf8pvx1fA2","elevationGeoid":{"geoidHeight":20.96484293333333,"hae":128.96484293333333}},"geometry":{"type":"Point","coordinates":[35.19111111111111,32.57277777777778]}}, {"type":"Feature","id":5,"properties":{"_id":"627bacc63145c095364c0e8f","name":"AFULA","compulsory":true,"country":"IL","airports":["62614be6cb27f4250944e3bf"],"elevation":{"value":56,"unit":0,"referenceDatum":1},"createdAt":"2022-05-11T12:32:06.997Z","updatedAt":"2022-05-11T18:55:35.234Z","createdBy":"PZo493xbdLP9IH3qMzt97PzLf7Y2","updatedBy":"OPONcQnzWGOLiJSceNaf8pvx1fA2","elevationGeoid":{"geoidHeight":21.07831033333335,"hae":77.07831033333335}},"geometry":{"type":"Point","coordinates":[35.28194444444444,32.603611111111114]}}, {"type":"Feature","id":6,"properties":{"_id":"627bafdf3145c095364c10de","name":"ZOREA","compulsory":false,"country":"IL","airports":["62614be75e9ded571044a5c8","62614be6cb27f4250944e3bf"],"elevation":{"value":55,"unit":0,"referenceDatum":1},"createdAt":"2022-05-11T12:45:19.312Z","updatedAt":"2022-05-11T18:55:37.739Z","createdBy":"PZo493xbdLP9IH3qMzt97PzLf7Y2","updatedBy":"OPONcQnzWGOLiJSceNaf8pvx1fA2","elevationGeoid":{"geoidHeight":21.04707480000002,"hae":76.04707480000002}},"geometry":{"type":"Point","coordinates":[35.11888888888889,32.64805555555556]}}, {"type":"Feature","id":7,"properties":{"_id":"627bb06f3145c095364c1146","name":"EMMEK","compulsory":false,"country":"IL","airports":["62614be75e9ded571044a5c8","62614be6cb27f4250944e3bf"],"elevation":{"value":89,"unit":0,"referenceDatum":1},"createdAt":"2022-05-11T12:47:43.406Z","updatedAt":"2022-05-11T18:55:40.263Z","createdBy":"PZo493xbdLP9IH3qMzt97PzLf7Y2","updatedBy":"OPONcQnzWGOLiJSceNaf8pvx1fA2","elevationGeoid":{"geoidHeight":21.006527999999975,"hae":110.00652799999997}},"geometry":{"type":"Point","coordinates":[35.141666666666666,32.615]}}]}