<?xml version="1.0" encoding="UTF-8"?>
<kml xmlns="http://www.opengis.net/kml/2.2">
<Document>
<Placemark>
<name>Line 21:43</name>
<Style>
<LineStyle><color>FF000000</color><width>2</width></LineStyle>
<PolyStyle><color>00000000</color></PolyStyle>
</Style>
<LineString><tessellate>1</tessellate><coordinates>
33.3320386659902,34.865258654145876,0
33.332534983864235,34.88830644746223,0
</coordinates></LineString>
</Placemark>
<Placemark>
<name>Line 21:44</name>
<Style>
<LineStyle><color>FF000000</color><width>2</width></LineStyle>
<PolyStyle><color>00000000</color></PolyStyle>
</Style>
<LineString><tessellate>1</tessellate><coordinates>
32.89487541909944,34.84593310525834,0
32.90336360521263,34.837838199918494,0
32.908295122189934,34.83619459142372,0
</coordinates></LineString>
</Placemark>
<Placemark>
<name>Line 21:45</name>
<Style>
<LineStyle><color>FF000000</color><width>2</width></LineStyle>
<PolyStyle><color>00000000</color></PolyStyle>
</Style>
<LineString><tessellate>1</tessellate><coordinates>
33.294544854283785,35.09780832677402,0
33.29776127536162,35.09649252361006,0
33.30399026034536,35.09521376476387,0
33.30404197748477,35.09680101320704,0
33.309937381985264,35.09463070905051,0
33.32135459075204,35.0943311413436,0
33.32443305263712,35.096042941455636,0
33.32426119765456,35.09425166408348,0
33.338582886089974,35.09380788392067,0
33.33219402316248,35.10093883776156,0
33.34584923326322,35.09360620713924,0
33.354002921256004,35.0933964633601,0
</coordinates></LineString>
</Placemark>
<Placemark>
<name>Line 21:47</name>
<Style>
<LineStyle><color>FF000000</color><width>2</width></LineStyle>
<PolyStyle><color>00000000</color></PolyStyle>
</Style>
<LineString><tessellate>1</tessellate><coordinates>
33.37411823776692,35.09285429416232,0
33.386701078738525,35.09241410246346,0
33.39934327777815,35.10555144716807,0
33.412478354082374,35.122402046271226,0
33.412399477420564,35.124079385549024,0
33.41050648266918,35.1244342023489,0
33.40719373809316,35.123789078850045,0
33.406681050322206,35.117144008726584,0
33.465621398955264,35.105035849835446,0
33.48478642797564,35.093263176597404,0
33.50655309371651,35.07427127163074,0
33.53834477758502,35.05476906808703,0
33.581946769950456,35.039253903126344,0
33.630973260256,35.016256805226796,0
33.63289586977336,35.016256805226796,0
33.63653509306024,35.013557455659445,0
33.66674749540399,34.99944065449509,0
33.6674341409118,35.000115615094344,0
33.678695123048975,34.994097004182024,0
33.68171636956978,34.99404075425654,0
33.682952333579316,34.99207195246716,0
33.69950048926986,34.98104578709558,0
33.709800171887046,34.98267730395524,0
</coordinates></LineString>
</Placemark>
<Placemark>
<name>Line 21:48</name>
<Style>
<LineStyle><color>FF000000</color><width>2</width></LineStyle>
<PolyStyle><color>00000000</color></PolyStyle>
</Style>
<LineString><tessellate>1</tessellate><coordinates>
33.41546607494145,35.12443343333058,0
33.41538720128848,35.123110925138434,0
33.408525088168666,35.10152841987578,0
33.4058827816785,35.067772123512874,0
33.401820725363706,35.05150215096835,0
33.404463031853915,35.050113889780576,0
33.40091366631891,35.009165676276574,0
33.400598165689296,35.00348039093419,0
33.41077302338504,34.99052551116224,0
33.41057583624374,34.98590519605873,0
</coordinates></LineString>
</Placemark>
</Document></kml>
